{
"type": "FeatureCollection",
"name": "holes_whitelist",
"crs": { "type": "name", "properties": { "name": "urn:ogc:def:crs:OGC:1.3:CRS84" } },
"features": [
{ "type": "Feature", "properties": { "area_km2": 397055.82, "lon": 50.8, "lat": 41.76, "label": "Caspian Sea", "kind": "sea" }, "geometry": { "type": "Polygon", "coordinates": [ [ [ 48.655447, 41.800605 ], [ 48.743663, 41.70893 ], [ 48.777843, 41.68301 ], [ 48.79184, 41.667426 ], [ 48.797618, 41.643134 ], [ 48.865896, 41.585395 ], [ 48.904063, 41.523383 ], [ 48.924327, 41.517808 ], [ 48.941173, 41.504625 ], [ 48.953868, 41.489081 ], [ 48.962169, 41.476142 ], [ 48.985362, 41.450507 ], [ 48.989431, 41.444525 ], [ 48.994477, 41.440416 ], [ 49.019216, 41.43476 ], [ 49.027599, 41.43122 ], [ 49.042491, 41.414374 ], [ 49.078624, 41.35753 ], [ 49.108897, 41.30976 ], [ 49.123383, 41.293687 ], [ 49.135916, 41.27497 ], [ 49.141938, 41.25316 ], [ 49.154307, 41.166449 ], [ 49.160655, 41.148098 ], [ 49.171641, 41.140367 ], [ 49.178477, 41.128852 ], [ 49.195486, 41.057278 ], [ 49.243175, 40.997219 ], [ 49.363129, 40.894232 ], [ 49.373057, 40.882799 ], [ 49.382009, 40.866645 ], [ 49.403168, 40.852729 ], [ 49.448741, 40.831285 ], [ 49.471039, 40.835761 ], [ 49.489919, 40.823147 ], [ 49.507823, 40.80622 ], [ 49.527843, 40.797797 ], [ 49.538829, 40.788072 ], [ 49.534353, 40.766181 ], [ 49.516938, 40.728909 ], [ 49.510997, 40.70954 ], [ 49.509532, 40.699042 ], [ 49.510753, 40.687934 ], [ 49.514903, 40.681586 ], [ 49.528331, 40.66885 ], [ 49.531261, 40.663723 ], [ 49.531912, 40.662869 ], [ 49.53891, 40.653998 ], [ 49.556651, 40.641181 ], [ 49.576182, 40.62995 ], [ 49.58961, 40.62519 ], [ 49.633067, 40.623196 ], [ 49.652599, 40.619208 ], [ 49.668468, 40.612209 ], [ 49.704112, 40.58808 ], [ 49.723806, 40.580756 ], [ 49.773936, 40.575629 ], [ 49.816742, 40.565375 ], [ 49.840343, 40.563788 ], [ 49.858653, 40.566636 ], [ 49.914236, 40.584296 ], [ 49.938162, 40.58747 ], [ 50.052013, 40.584296 ], [ 50.060395, 40.577948 ], [ 50.064789, 40.57095 ], [ 50.068044, 40.563707 ], [ 50.07252, 40.556952 ], [ 50.090343, 40.540229 ], [ 50.109386, 40.527086 ], [ 50.129649, 40.518459 ], [ 50.220063, 40.503648 ], [ 50.237559, 40.496161 ], [ 50.248546, 40.481187 ], [ 50.260753, 40.458075 ], [ 50.27589, 40.436591 ], [ 50.295665, 40.427232 ], [ 50.317393, 40.42121 ], [ 50.335948, 40.405951 ], [ 50.350597, 40.385891 ], [ 50.360525, 40.36518 ], [ 50.370779, 40.28262 ], [ 50.377696, 40.2744 ], [ 50.385997, 40.255683 ], [ 50.391124, 40.235012 ], [ 50.387869, 40.221137 ], [ 50.368663, 40.249701 ], [ 50.347911, 40.2744 ], [ 50.32309, 40.296576 ], [ 50.273692, 40.327338 ], [ 50.252615, 40.33633 ], [ 50.229991, 40.34276 ], [ 50.185313, 40.34748 ], [ 50.147716, 40.35692 ], [ 50.127696, 40.358954 ], [ 50.116466, 40.357978 ], [ 50.102875, 40.35342 ], [ 50.093598, 40.351508 ], [ 50.055186, 40.351508 ], [ 50.037608, 40.345771 ], [ 50.003754, 40.324205 ], [ 49.983735, 40.324205 ], [ 49.976573, 40.329047 ], [ 49.963715, 40.344794 ], [ 49.955821, 40.351508 ], [ 49.945323, 40.354722 ], [ 49.919607, 40.35814 ], [ 49.893403, 40.369045 ], [ 49.873546, 40.360582 ], [ 49.840343, 40.337836 ], [ 49.847179, 40.314154 ], [ 49.819021, 40.29206 ], [ 49.778331, 40.275824 ], [ 49.711925, 40.26435 ], [ 49.653656, 40.23843 ], [ 49.577159, 40.216742 ], [ 49.559255, 40.206692 ], [ 49.520844, 40.174221 ], [ 49.503591, 40.164944 ], [ 49.492524, 40.153998 ], [ 49.490408, 40.132392 ], [ 49.49586, 40.105211 ], [ 49.496593, 40.09455 ], [ 49.442638, 40.078437 ], [ 49.432628, 40.062974 ], [ 49.435069, 40.042792 ], [ 49.448741, 40.022528 ], [ 49.457693, 40.015041 ], [ 49.471934, 40.006496 ], [ 49.479747, 39.998969 ], [ 49.483897, 39.988674 ], [ 49.478282, 39.982327 ], [ 49.468272, 39.977362 ], [ 49.450694, 39.96483 ], [ 49.442882, 39.961859 ], [ 49.435395, 39.957668 ], [ 49.428233, 39.947455 ], [ 49.423676, 39.935492 ], [ 49.423106, 39.9265 ], [ 49.428233, 39.90644 ], [ 49.439708, 39.884996 ], [ 49.443126, 39.873358 ], [ 49.438487, 39.861762 ], [ 49.429698, 39.854315 ], [ 49.422048, 39.849433 ], [ 49.416515, 39.843736 ], [ 49.414561, 39.834174 ], [ 49.416352, 39.828599 ], [ 49.419688, 39.82331 ], [ 49.422374, 39.817328 ], [ 49.421397, 39.810248 ], [ 49.417166, 39.805854 ], [ 49.40089, 39.796617 ], [ 49.394786, 39.782457 ], [ 49.395193, 39.77619 ], [ 49.40089, 39.769273 ], [ 49.396332, 39.756171 ], [ 49.402029, 39.742499 ], [ 49.424815, 39.718085 ], [ 49.423595, 39.70954 ], [ 49.409841, 39.701361 ], [ 49.383962, 39.690131 ], [ 49.358735, 39.666571 ], [ 49.33725, 39.64643 ], [ 49.318044, 39.621405 ], [ 49.319021, 39.604193 ], [ 49.307384, 39.587592 ], [ 49.29713, 39.565579 ], [ 49.289236, 39.542385 ], [ 49.284923, 39.522203 ], [ 49.285818, 39.495185 ], [ 49.295746, 39.476711 ], [ 49.388845, 39.410793 ], [ 49.40089, 39.399359 ], [ 49.408946, 39.38642 ], [ 49.408051, 39.382025 ], [ 49.403575, 39.378485 ], [ 49.397309, 39.34516 ], [ 49.398692, 39.33515 ], [ 49.407074, 39.323676 ], [ 49.394786, 39.328681 ], [ 49.38559, 39.334947 ], [ 49.378673, 39.342475 ], [ 49.373057, 39.350979 ], [ 49.366873, 39.350979 ], [ 49.370616, 39.336168 ], [ 49.37908, 39.31981 ], [ 49.391368, 39.305487 ], [ 49.407074, 39.296942 ], [ 49.407074, 39.289496 ], [ 49.384532, 39.293687 ], [ 49.370372, 39.305854 ], [ 49.357677, 39.320136 ], [ 49.306407, 39.346503 ], [ 49.273123, 39.336575 ], [ 49.247325, 39.310696 ], [ 49.237071, 39.278957 ], [ 49.237804, 39.169501 ], [ 49.234304, 39.156358 ], [ 49.229666, 39.138658 ], [ 49.215587, 39.10635 ], [ 49.210785, 39.090766 ], [ 49.207856, 39.055406 ], [ 49.203298, 39.034125 ], [ 49.193858, 39.016343 ], [ 49.118826, 38.975328 ], [ 49.079275, 38.963324 ], [ 49.051524, 38.981024 ], [ 49.054698, 38.992743 ], [ 49.054373, 39.0008 ], [ 49.055837, 39.007514 ], [ 49.065196, 39.015123 ], [ 49.110118, 39.021959 ], [ 49.125499, 39.028144 ], [ 49.138682, 39.043443 ], [ 49.146821, 39.063422 ], [ 49.147716, 39.083441 ], [ 49.136404, 39.102281 ], [ 49.116384, 39.110297 ], [ 49.068614, 39.111396 ], [ 49.068614, 39.120307 ], [ 49.062755, 39.161322 ], [ 49.05893, 39.172797 ], [ 49.041189, 39.184394 ], [ 49.022227, 39.188218 ], [ 48.979503, 39.187079 ], [ 48.967621, 39.183824 ], [ 48.961762, 39.175849 ], [ 48.957856, 39.165676 ], [ 48.949555, 39.151272 ], [ 48.948741, 39.146186 ], [ 48.949067, 39.135321 ], [ 48.946951, 39.127509 ], [ 48.942149, 39.125393 ], [ 48.937266, 39.125434 ], [ 48.934825, 39.124416 ], [ 48.932953, 39.077704 ], [ 48.936371, 39.053127 ], [ 48.952647, 39.031643 ], [ 48.948578, 39.007229 ], [ 48.921723, 38.935452 ], [ 48.918224, 38.928941 ], [ 48.898692, 38.893052 ], [ 48.896251, 38.890733 ], [ 48.867931, 38.863837 ], [ 48.831798, 38.871161 ], [ 48.83253, 38.835639 ], [ 48.834727, 38.819281 ], [ 48.839203, 38.803534 ], [ 48.863129, 38.756659 ], [ 48.8685, 38.602484 ], [ 48.874278, 38.434231 ], [ 48.874278, 38.434068 ], [ 48.877208, 38.346177 ], [ 48.865896, 38.316881 ], [ 48.872895, 38.295559 ], [ 48.874848, 38.242743 ], [ 48.893728, 38.205797 ], [ 48.907725, 38.083482 ], [ 48.949067, 37.966864 ], [ 48.941173, 37.94774 ], [ 48.940196, 37.924994 ], [ 48.944509, 37.903388 ], [ 48.952159, 37.888007 ], [ 48.987478, 37.842475 ], [ 48.987804, 37.832099 ], [ 48.984711, 37.823188 ], [ 48.983165, 37.815985 ], [ 48.993663, 37.77676 ], [ 49.014496, 37.739163 ], [ 49.065196, 37.67886 ], [ 49.132498, 37.623358 ], [ 49.205577, 37.581692 ], [ 49.366873, 37.51496 ], [ 49.441742, 37.494859 ], [ 49.826182, 37.453559 ], [ 49.867442, 37.458564 ], [ 49.901541, 37.469713 ], [ 49.933767, 37.474433 ], [ 49.969493, 37.459703 ], [ 49.959972, 37.458482 ], [ 49.948904, 37.460924 ], [ 49.943126, 37.461615 ], [ 49.935313, 37.453559 ], [ 50.018728, 37.42772 ], [ 50.148774, 37.403876 ], [ 50.195649, 37.38935 ], [ 50.227306, 37.365424 ], [ 50.223318, 37.329332 ], [ 50.232107, 37.315416 ], [ 50.245128, 37.279283 ], [ 50.254242, 37.264838 ], [ 50.268728, 37.246894 ], [ 50.292247, 37.192816 ], [ 50.322276, 37.153266 ], [ 50.357188, 37.126532 ], [ 50.429454, 37.082953 ], [ 50.478852, 37.03498 ], [ 50.493988, 37.027737 ], [ 50.513438, 37.023261 ], [ 50.624034, 36.963284 ], [ 50.644786, 36.959418 ], [ 50.658702, 36.954332 ], [ 50.688243, 36.928697 ], [ 50.703136, 36.918443 ], [ 50.86085, 36.849555 ], [ 51.004731, 36.767646 ], [ 51.088634, 36.737006 ], [ 51.367849, 36.692572 ], [ 51.546072, 36.650946 ], [ 51.730968, 36.624254 ], [ 51.909028, 36.582709 ], [ 52.094086, 36.602525 ], [ 52.258556, 36.650946 ], [ 52.430512, 36.685126 ], [ 52.608653, 36.712388 ], [ 52.779307, 36.740383 ], [ 52.950531, 36.781317 ], [ 53.115733, 36.822252 ], [ 53.447602, 36.881903 ], [ 53.492361, 36.887885 ], [ 53.885916, 36.905829 ], [ 53.957774, 36.919623 ], [ 54.006521, 36.952623 ], [ 54.004242, 36.914618 ], [ 53.947602, 36.898749 ], [ 53.876475, 36.891669 ], [ 53.83074, 36.880276 ], [ 53.818207, 36.87523 ], [ 53.803884, 36.877021 ], [ 53.77711, 36.883734 ], [ 53.762055, 36.881822 ], [ 53.734386, 36.873236 ], [ 53.719005, 36.870673 ], [ 53.660411, 36.876899 ], [ 53.609141, 36.876899 ], [ 53.616954, 36.865668 ], [ 53.631033, 36.861965 ], [ 53.663829, 36.863227 ], [ 53.643891, 36.857815 ], [ 53.635997, 36.857001 ], [ 53.660167, 36.831204 ], [ 53.70102, 36.816596 ], [ 53.856456, 36.805487 ], [ 53.872081, 36.798407 ], [ 53.889171, 36.793606 ], [ 54.014334, 36.821112 ], [ 54.026215, 36.829088 ], [ 54.033051, 36.845771 ], [ 54.033539, 36.949123 ], [ 54.028087, 36.966213 ], [ 54.013357, 36.97309 ], [ 53.994395, 36.979153 ], [ 53.997244, 36.99372 ], [ 54.02003, 37.027737 ], [ 53.996267, 37.057318 ], [ 53.980317, 37.094062 ], [ 53.958018, 37.178534 ], [ 53.927745, 37.243801 ], [ 53.923188, 37.258002 ], [ 53.913748, 37.34276 ], [ 53.913748, 37.343004 ], [ 53.899669, 37.468411 ], [ 53.889822, 37.508124 ], [ 53.871104, 37.547797 ], [ 53.865245, 37.567288 ], [ 53.860606, 37.611314 ], [ 53.82488, 37.744859 ], [ 53.80714, 38.031968 ], [ 53.810313, 38.048407 ], [ 53.823985, 38.081529 ], [ 53.834158, 38.130276 ], [ 53.858897, 38.206488 ], [ 53.854991, 38.23371 ], [ 53.866466, 38.265082 ], [ 53.868175, 38.30801 ], [ 53.863048, 38.381415 ], [ 53.861501, 38.38935 ], [ 53.85255, 38.403306 ], [ 53.848155, 38.412502 ], [ 53.845551, 38.422309 ], [ 53.843435, 38.442694 ], [ 53.828298, 38.503567 ], [ 53.826996, 38.525458 ], [ 53.836111, 38.606147 ], [ 53.847423, 38.646308 ], [ 53.863048, 38.679389 ], [ 53.909841, 38.737698 ], [ 53.926931, 38.773668 ], [ 53.917003, 38.803534 ], [ 53.931977, 38.813056 ], [ 53.939789, 38.831041 ], [ 53.945567, 38.851304 ], [ 53.9546, 38.867743 ], [ 53.965587, 38.881903 ], [ 53.97755, 38.90176 ], [ 53.982758, 38.916002 ], [ 53.972911, 38.913398 ], [ 53.971365, 38.934272 ], [ 53.958018, 38.944525 ], [ 53.923188, 38.954332 ], [ 53.922862, 38.956041 ], [ 53.918793, 38.964789 ], [ 53.917003, 38.967353 ], [ 53.912283, 38.969672 ], [ 53.89975, 38.972846 ], [ 53.896658, 38.974189 ], [ 53.891775, 38.980536 ], [ 53.887218, 38.988593 ], [ 53.884044, 38.998114 ], [ 53.882335, 39.008979 ], [ 53.870942, 39.028388 ], [ 53.859711, 39.035224 ], [ 53.820811, 39.036282 ], [ 53.796641, 39.041653 ], [ 53.787364, 39.042467 ], [ 53.776866, 39.03913 ], [ 53.772146, 39.033108 ], [ 53.767263, 39.030992 ], [ 53.756358, 39.039374 ], [ 53.747813, 39.054429 ], [ 53.728038, 39.101386 ], [ 53.721853, 39.111396 ], [ 53.712169, 39.104315 ], [ 53.71518, 39.088568 ], [ 53.724132, 39.072089 ], [ 53.732107, 39.062934 ], [ 53.732107, 39.056708 ], [ 53.715994, 39.063422 ], [ 53.701508, 39.078518 ], [ 53.694672, 39.097113 ], [ 53.705333, 39.124213 ], [ 53.697276, 39.142483 ], [ 53.698009, 39.15233 ], [ 53.703949, 39.158637 ], [ 53.732107, 39.172797 ], [ 53.702403, 39.175116 ], [ 53.702159, 39.196234 ], [ 53.72462, 39.241685 ], [ 53.703949, 39.232733 ], [ 53.67628, 39.216213 ], [ 53.660004, 39.200385 ], [ 53.674083, 39.193305 ], [ 53.683767, 39.083441 ], [ 53.67213, 39.098578 ], [ 53.647309, 39.123969 ], [ 53.635997, 39.138658 ], [ 53.631358, 39.156643 ], [ 53.630219, 39.176744 ], [ 53.623383, 39.191636 ], [ 53.601736, 39.193305 ], [ 53.606944, 39.205878 ], [ 53.610362, 39.22191 ], [ 53.608572, 39.235785 ], [ 53.598318, 39.241685 ], [ 53.592784, 39.235053 ], [ 53.576671, 39.203437 ], [ 53.567638, 39.193305 ], [ 53.563975, 39.216702 ], [ 53.568696, 39.246324 ], [ 53.588145, 39.303168 ], [ 53.560802, 39.28266 ], [ 53.577322, 39.316718 ], [ 53.581309, 39.330471 ], [ 53.574555, 39.327867 ], [ 53.553966, 39.323676 ], [ 53.564952, 39.34516 ], [ 53.562022, 39.353339 ], [ 53.549815, 39.348334 ], [ 53.533458, 39.330471 ], [ 53.526134, 39.337877 ], [ 53.514822, 39.332709 ], [ 53.471446, 39.330471 ], [ 53.452485, 39.318061 ], [ 53.44337, 39.318793 ], [ 53.444102, 39.337877 ], [ 53.437266, 39.337877 ], [ 53.429698, 39.327867 ], [ 53.418793, 39.318061 ], [ 53.405121, 39.311265 ], [ 53.389415, 39.310614 ], [ 53.394298, 39.317043 ], [ 53.403168, 39.337877 ], [ 53.396169, 39.338202 ], [ 53.382009, 39.337104 ], [ 53.375173, 39.337877 ], [ 53.37379, 39.336656 ], [ 53.365489, 39.33161 ], [ 53.361583, 39.330471 ], [ 53.358572, 39.332709 ], [ 53.351573, 39.342231 ], [ 53.347911, 39.344143 ], [ 53.334646, 39.340522 ], [ 53.309093, 39.330756 ], [ 53.293305, 39.330471 ], [ 53.293305, 39.337877 ], [ 53.29949, 39.34516 ], [ 53.296886, 39.349066 ], [ 53.288259, 39.350653 ], [ 53.276134, 39.350979 ], [ 53.264659, 39.352851 ], [ 53.249522, 39.361802 ], [ 53.238617, 39.364651 ], [ 53.218516, 39.363837 ], [ 53.170177, 39.352484 ], [ 53.149913, 39.344143 ], [ 53.185883, 39.326361 ], [ 53.197765, 39.323676 ], [ 53.179535, 39.301256 ], [ 53.173025, 39.288316 ], [ 53.170258, 39.272162 ], [ 53.17213, 39.255439 ], [ 53.184093, 39.213813 ], [ 53.181488, 39.189358 ], [ 53.171886, 39.177476 ], [ 53.161469, 39.179592 ], [ 53.136892, 39.321438 ], [ 53.130544, 39.333482 ], [ 53.088715, 39.383246 ], [ 53.085216, 39.400458 ], [ 53.094737, 39.419867 ], [ 53.104015, 39.429348 ], [ 53.132823, 39.450588 ], [ 53.137462, 39.459947 ], [ 53.14088, 39.472642 ], [ 53.145356, 39.483954 ], [ 53.165538, 39.496731 ], [ 53.178233, 39.515692 ], [ 53.21461, 39.593492 ], [ 53.24171, 39.636298 ], [ 53.27589, 39.664862 ], [ 53.313731, 39.65884 ], [ 53.292735, 39.649848 ], [ 53.277354, 39.639228 ], [ 53.248546, 39.607896 ], [ 53.244395, 39.599677 ], [ 53.235199, 39.570705 ], [ 53.232432, 39.567532 ], [ 53.211274, 39.550198 ], [ 53.21697, 39.525051 ], [ 53.25408, 39.521186 ], [ 53.363536, 39.538072 ], [ 53.426768, 39.535956 ], [ 53.446788, 39.530585 ], [ 53.458751, 39.517808 ], [ 53.46754, 39.502346 ], [ 53.478282, 39.488715 ], [ 53.492198, 39.48078 ], [ 53.509125, 39.476508 ], [ 53.550548, 39.474514 ], [ 53.567882, 39.467719 ], [ 53.577159, 39.467841 ], [ 53.581309, 39.477932 ], [ 53.580577, 39.487982 ], [ 53.577403, 39.495266 ], [ 53.5713, 39.499823 ], [ 53.560802, 39.501776 ], [ 53.573741, 39.527289 ], [ 53.586111, 39.523871 ], [ 53.599457, 39.507758 ], [ 53.615408, 39.49494 ], [ 53.634451, 39.495307 ], [ 53.663585, 39.51732 ], [ 53.683767, 39.522203 ], [ 53.692882, 39.519477 ], [ 53.715994, 39.509263 ], [ 53.72462, 39.508612 ], [ 53.736176, 39.51789 ], [ 53.733165, 39.527981 ], [ 53.722504, 39.537055 ], [ 53.711599, 39.543402 ], [ 53.689301, 39.550442 ], [ 53.647146, 39.558254 ], [ 53.629161, 39.570705 ], [ 53.645274, 39.574897 ], [ 53.654633, 39.582099 ], [ 53.655528, 39.592922 ], [ 53.646495, 39.607896 ], [ 53.633067, 39.618313 ], [ 53.61964, 39.62051 ], [ 53.571625, 39.6164 ], [ 53.568207, 39.622626 ], [ 53.567638, 39.642401 ], [ 53.564464, 39.652655 ], [ 53.556488, 39.664496 ], [ 53.545665, 39.674872 ], [ 53.533458, 39.680487 ], [ 53.539724, 39.646308 ], [ 53.539724, 39.632148 ], [ 53.533458, 39.632148 ], [ 53.497081, 39.676459 ], [ 53.471039, 39.696357 ], [ 53.444102, 39.701077 ], [ 53.447765, 39.695258 ], [ 53.457774, 39.673082 ], [ 53.451671, 39.676663 ], [ 53.435883, 39.683336 ], [ 53.429861, 39.686713 ], [ 53.430431, 39.667711 ], [ 53.449229, 39.648586 ], [ 53.450938, 39.632148 ], [ 53.416759, 39.64997 ], [ 53.412852, 39.685696 ], [ 53.429861, 39.762519 ], [ 53.418224, 39.757392 ], [ 53.405772, 39.755805 ], [ 53.393403, 39.757514 ], [ 53.382009, 39.762519 ], [ 53.382009, 39.769273 ], [ 53.415212, 39.78205 ], [ 53.46754, 39.83869 ], [ 53.499278, 39.865546 ], [ 53.493826, 39.870673 ], [ 53.488292, 39.881049 ], [ 53.485037, 39.885403 ], [ 53.493826, 39.88935 ], [ 53.502696, 39.891547 ], [ 53.522716, 39.892808 ], [ 53.53712, 39.896308 ], [ 53.536957, 39.903754 ], [ 53.530772, 39.910712 ], [ 53.526134, 39.912665 ], [ 53.537283, 39.924872 ], [ 53.552745, 39.936225 ], [ 53.567068, 39.94953 ], [ 53.574474, 39.967922 ], [ 53.569102, 39.965562 ], [ 53.566417, 39.96483 ], [ 53.56422, 39.963935 ], [ 53.560802, 39.961086 ], [ 53.54363, 39.974311 ], [ 53.528819, 39.976955 ], [ 53.491873, 39.974758 ], [ 53.474946, 39.979234 ], [ 53.451996, 39.99551 ], [ 53.437266, 40.002672 ], [ 53.419607, 40.006496 ], [ 53.40211, 40.006781 ], [ 53.385265, 40.003079 ], [ 53.368907, 39.995266 ], [ 53.326834, 39.958686 ], [ 53.310313, 39.953599 ], [ 53.305675, 39.951483 ], [ 53.29005, 39.942084 ], [ 53.282725, 39.940009 ], [ 53.274913, 39.942084 ], [ 53.257091, 39.951483 ], [ 53.248546, 39.953599 ], [ 53.237559, 39.95775 ], [ 53.172374, 39.997463 ], [ 53.155284, 39.992377 ], [ 53.140391, 39.981024 ], [ 53.125743, 39.974758 ], [ 53.053559, 39.967922 ], [ 53.059255, 39.977037 ], [ 53.065115, 39.984036 ], [ 53.072439, 39.989814 ], [ 53.081716, 39.995266 ], [ 53.012462, 39.978013 ], [ 52.974864, 39.974311 ], [ 52.943696, 39.981594 ], [ 52.927501, 40.011176 ], [ 52.913585, 40.021674 ], [ 52.896007, 40.008857 ], [ 52.895844, 39.998277 ], [ 52.903087, 39.984931 ], [ 52.919932, 39.964545 ], [ 52.923595, 39.952582 ], [ 52.930186, 39.895941 ], [ 52.936046, 39.8876 ], [ 52.964529, 39.858222 ], [ 52.974864, 39.851874 ], [ 53.012543, 39.797268 ], [ 53.043712, 39.774644 ], [ 53.053559, 39.769273 ], [ 53.053559, 39.762519 ], [ 53.00587, 39.782945 ], [ 53.019379, 39.775336 ], [ 53.046886, 39.748236 ], [ 53.04005, 39.742011 ], [ 53.008067, 39.766343 ], [ 52.994884, 39.780219 ], [ 52.966319, 39.832953 ], [ 52.952647, 39.846503 ], [ 52.917166, 39.858344 ], [ 52.905284, 39.874579 ], [ 52.898448, 39.895494 ], [ 52.892833, 39.934231 ], [ 52.884125, 39.944892 ], [ 52.787852, 40.00434 ], [ 52.753266, 40.031968 ], [ 52.738455, 40.053616 ], [ 52.746104, 40.096991 ], [ 52.753754, 40.12108 ], [ 52.761974, 40.13581 ], [ 52.768321, 40.153795 ], [ 52.758067, 40.172512 ], [ 52.730968, 40.20067 ], [ 52.743419, 40.20954 ], [ 52.738943, 40.219387 ], [ 52.717784, 40.235419 ], [ 52.698985, 40.273871 ], [ 52.701996, 40.312405 ], [ 52.736583, 40.484565 ], [ 52.750255, 40.517646 ], [ 52.772472, 40.550727 ], [ 52.83253, 40.614569 ], [ 52.863129, 40.658108 ], [ 52.868175, 40.694159 ], [ 52.859223, 40.700019 ], [ 52.833181, 40.704901 ], [ 52.827647, 40.711493 ], [ 52.829845, 40.720649 ], [ 52.837576, 40.739081 ], [ 52.83725, 40.742499 ], [ 52.83253, 40.745551 ], [ 52.845225, 40.751654 ], [ 52.861583, 40.756496 ], [ 52.868175, 40.755561 ], [ 52.870372, 40.765082 ], [ 52.868826, 40.775784 ], [ 52.865245, 40.785102 ], [ 52.86199, 40.790351 ], [ 52.885509, 40.865424 ], [ 52.92335, 40.941148 ], [ 52.931326, 40.975653 ], [ 52.917003, 41.044989 ], [ 52.916515, 41.08515 ], [ 52.927257, 41.079047 ], [ 52.951427, 41.068793 ], [ 52.961192, 41.060981 ], [ 52.965505, 41.049384 ], [ 52.963064, 41.037787 ], [ 52.958751, 41.026516 ], [ 52.958181, 41.016262 ], [ 52.968435, 40.997016 ], [ 53.012055, 40.954779 ], [ 53.019867, 40.937934 ], [ 53.031749, 40.899807 ], [ 53.04005, 40.885932 ], [ 53.072032, 40.868964 ], [ 53.074474, 40.865424 ], [ 53.099783, 40.86518 ], [ 53.111339, 40.867092 ], [ 53.121918, 40.87226 ], [ 53.106293, 40.858303 ], [ 53.081879, 40.851508 ], [ 53.064708, 40.84398 ], [ 53.070811, 40.827867 ], [ 53.077973, 40.822211 ], [ 53.094005, 40.812405 ], [ 53.102061, 40.803941 ], [ 53.104259, 40.794908 ], [ 53.104259, 40.783596 ], [ 53.107432, 40.773912 ], [ 53.118907, 40.769843 ], [ 53.163259, 40.767035 ], [ 53.182302, 40.768459 ], [ 53.2046, 40.776068 ], [ 53.249766, 40.812567 ], [ 53.26588, 40.817043 ], [ 53.24936, 40.790351 ], [ 53.244884, 40.77497 ], [ 53.256033, 40.768948 ], [ 53.330821, 40.776068 ], [ 53.339529, 40.780829 ], [ 53.341156, 40.791978 ], [ 53.341156, 40.804592 ], [ 53.344493, 40.81391 ], [ 53.359223, 40.829779 ], [ 53.369965, 40.835191 ], [ 53.382009, 40.831285 ], [ 53.383067, 40.825588 ], [ 53.375987, 40.807074 ], [ 53.375173, 40.797797 ], [ 53.3838, 40.778306 ], [ 53.398692, 40.762763 ], [ 53.418305, 40.752427 ], [ 53.440684, 40.748725 ], [ 53.446951, 40.746527 ], [ 53.461274, 40.736884 ], [ 53.471446, 40.735053 ], [ 53.483084, 40.737047 ], [ 53.491873, 40.740871 ], [ 53.505544, 40.748725 ], [ 53.541677, 40.761623 ], [ 53.555349, 40.773505 ], [ 53.560802, 40.794013 ], [ 53.559093, 40.836819 ], [ 53.562755, 40.852973 ], [ 53.587413, 40.891588 ], [ 53.592784, 40.893378 ], [ 53.605479, 40.893378 ], [ 53.614757, 40.891547 ], [ 53.624685, 40.88703 ], [ 53.632579, 40.881293 ], [ 53.635997, 40.876044 ], [ 53.638927, 40.872016 ], [ 53.652843, 40.867865 ], [ 53.656993, 40.865424 ], [ 53.657481, 40.859076 ], [ 53.654552, 40.852932 ], [ 53.65089, 40.847846 ], [ 53.649587, 40.844916 ], [ 53.655121, 40.823879 ], [ 53.66033, 40.81623 ], [ 53.670665, 40.810777 ], [ 53.66212, 40.796617 ], [ 53.656749, 40.78974 ], [ 53.649587, 40.783515 ], [ 53.660981, 40.766181 ], [ 53.676443, 40.725898 ], [ 53.691173, 40.707831 ], [ 53.701182, 40.703111 ], [ 53.711192, 40.701646 ], [ 53.719493, 40.69831 ], [ 53.72462, 40.687934 ], [ 53.722016, 40.680732 ], [ 53.708018, 40.659003 ], [ 53.704763, 40.650092 ], [ 53.721039, 40.625678 ], [ 53.759532, 40.625678 ], [ 53.804861, 40.632636 ], [ 53.862641, 40.626166 ], [ 53.879161, 40.637926 ], [ 53.894786, 40.653062 ], [ 53.937755, 40.671617 ], [ 53.947765, 40.673651 ], [ 53.957856, 40.672105 ], [ 53.985362, 40.66059 ], [ 54.010753, 40.657864 ], [ 54.030528, 40.662828 ], [ 54.049083, 40.669989 ], [ 54.080333, 40.676093 ], [ 54.088145, 40.682196 ], [ 54.093272, 40.69009 ], [ 54.095225, 40.697821 ], [ 54.08961, 40.69892 ], [ 54.063243, 40.708482 ], [ 54.05421, 40.715277 ], [ 54.112071, 40.713446 ], [ 54.141368, 40.716864 ], [ 54.171072, 40.729682 ], [ 54.232188, 40.728339 ], [ 54.235037, 40.725735 ], [ 54.230479, 40.719387 ], [ 54.220714, 40.69538 ], [ 54.21754, 40.690253 ], [ 54.22169, 40.687079 ], [ 54.252696, 40.676581 ], [ 54.403575, 40.673651 ], [ 54.383962, 40.682766 ], [ 54.362641, 40.687934 ], [ 54.375173, 40.700914 ], [ 54.414887, 40.708726 ], [ 54.430431, 40.721422 ], [ 54.331065, 40.720201 ], [ 54.318207, 40.721625 ], [ 54.310557, 40.730658 ], [ 54.308116, 40.752143 ], [ 54.303884, 40.770087 ], [ 54.285004, 40.797431 ], [ 54.278575, 40.823635 ], [ 54.268809, 40.839911 ], [ 54.266449, 40.848334 ], [ 54.268321, 40.855048 ], [ 54.271983, 40.859849 ], [ 54.274587, 40.864895 ], [ 54.273285, 40.87226 ], [ 54.2671, 40.874172 ], [ 54.257091, 40.873114 ], [ 54.248302, 40.874986 ], [ 54.245942, 40.885932 ], [ 54.250011, 40.890611 ], [ 54.257498, 40.891425 ], [ 54.266124, 40.891343 ], [ 54.273285, 40.893378 ], [ 54.299001, 40.916083 ], [ 54.312511, 40.923896 ], [ 54.331716, 40.926907 ], [ 54.360525, 40.91706 ], [ 54.421153, 40.879869 ], [ 54.437836, 40.879706 ], [ 54.465831, 40.865953 ], [ 54.468761, 40.85163 ], [ 54.456309, 40.835639 ], [ 54.437836, 40.817043 ], [ 54.474946, 40.809882 ], [ 54.590668, 40.826728 ], [ 54.62436, 40.836493 ], [ 54.639903, 40.838772 ], [ 54.657563, 40.862006 ], [ 54.699555, 40.879096 ], [ 54.708995, 40.884996 ], [ 54.746593, 40.932685 ], [ 54.756033, 40.948432 ], [ 54.76002, 40.965033 ], [ 54.756196, 40.981594 ], [ 54.746837, 40.995673 ], [ 54.722016, 41.019965 ], [ 54.690115, 41.059231 ], [ 54.677989, 41.064643 ], [ 54.677989, 41.070868 ], [ 54.700531, 41.068305 ], [ 54.724376, 41.059272 ], [ 54.767426, 41.03677 ], [ 54.760916, 41.045478 ], [ 54.740977, 41.057847 ], [ 54.732595, 41.064643 ], [ 54.723888, 41.074856 ], [ 54.720063, 41.080471 ], [ 54.718435, 41.08515 ], [ 54.7199, 41.091986 ], [ 54.724294, 41.098049 ], [ 54.729259, 41.100979 ], [ 54.732595, 41.098131 ], [ 54.716075, 41.11518 ], [ 54.688731, 41.121243 ], [ 54.659353, 41.124457 ], [ 54.636404, 41.132961 ], [ 54.63502, 41.162665 ], [ 54.600434, 41.192328 ], [ 54.400401, 41.309027 ], [ 54.311778, 41.338284 ], [ 54.29477, 41.34748 ], [ 54.258067, 41.375963 ], [ 54.211436, 41.395819 ], [ 54.190766, 41.407294 ], [ 54.186046, 41.412543 ], [ 54.174978, 41.429389 ], [ 54.152843, 41.45425 ], [ 54.144786, 41.459784 ], [ 54.108653, 41.465481 ], [ 54.089366, 41.474799 ], [ 54.073985, 41.487982 ], [ 54.061046, 41.502875 ], [ 54.041352, 41.534573 ], [ 54.030284, 41.569485 ], [ 54.02589, 41.608791 ], [ 54.025564, 41.695217 ], [ 54.019705, 41.731513 ], [ 54.008556, 41.764838 ], [ 53.992198, 41.797065 ], [ 53.944591, 41.858344 ], [ 53.93686, 41.876207 ], [ 53.932302, 41.884263 ], [ 53.921723, 41.887437 ], [ 53.91033, 41.889309 ], [ 53.902843, 41.893297 ], [ 53.898774, 41.905341 ], [ 53.901622, 41.914618 ], [ 53.906912, 41.923529 ], [ 53.910167, 41.934272 ], [ 53.909353, 41.940619 ], [ 53.904063, 41.960517 ], [ 53.902843, 41.972113 ], [ 53.914806, 41.995551 ], [ 53.917003, 42.006903 ], [ 53.91627, 42.023505 ], [ 53.913259, 42.043402 ], [ 53.906912, 42.062934 ], [ 53.896658, 42.078843 ], [ 53.865571, 42.101752 ], [ 53.818696, 42.124416 ], [ 53.767914, 42.136135 ], [ 53.72462, 42.126044 ], [ 53.681814, 42.143948 ], [ 53.375173, 42.105536 ], [ 53.31658, 42.082261 ], [ 53.296723, 42.078843 ], [ 53.219737, 42.081448 ], [ 53.163829, 42.103705 ], [ 53.121918, 42.089993 ], [ 53.084483, 42.064521 ], [ 53.060395, 42.044135 ], [ 52.960297, 41.984361 ], [ 52.937022, 41.95539 ], [ 52.821462, 41.764879 ], [ 52.804047, 41.744859 ], [ 52.789561, 41.736274 ], [ 52.782074, 41.725531 ], [ 52.773774, 41.701321 ], [ 52.769216, 41.675605 ], [ 52.772472, 41.660549 ], [ 52.784679, 41.663072 ], [ 52.815684, 41.693834 ], [ 52.830821, 41.701483 ], [ 52.880544, 41.697903 ], [ 52.903819, 41.689765 ], [ 52.916515, 41.674221 ], [ 52.915375, 41.660793 ], [ 52.899913, 41.640326 ], [ 52.896007, 41.629543 ], [ 52.897146, 41.619452 ], [ 52.901866, 41.59984 ], [ 52.902843, 41.588528 ], [ 52.898936, 41.565985 ], [ 52.832693, 41.437486 ], [ 52.827647, 41.417182 ], [ 52.815684, 41.388739 ], [ 52.813487, 41.37934 ], [ 52.81544, 41.369534 ], [ 52.827647, 41.344631 ], [ 52.83725, 41.302924 ], [ 52.844005, 41.24018 ], [ 52.851329, 41.223578 ], [ 52.903982, 41.140204 ], [ 52.909679, 41.122707 ], [ 52.904307, 41.101996 ], [ 52.883067, 41.072496 ], [ 52.882335, 41.050442 ], [ 52.875499, 41.050442 ], [ 52.869965, 41.060004 ], [ 52.854015, 41.070502 ], [ 52.848318, 41.077704 ], [ 52.84669, 41.08869 ], [ 52.854503, 41.11933 ], [ 52.854666, 41.142524 ], [ 52.851085, 41.163316 ], [ 52.844086, 41.182563 ], [ 52.833832, 41.201239 ], [ 52.829275, 41.206488 ], [ 52.816661, 41.217841 ], [ 52.813487, 41.221747 ], [ 52.811046, 41.23371 ], [ 52.813731, 41.252672 ], [ 52.813487, 41.262641 ], [ 52.79127, 41.321275 ], [ 52.789561, 41.331 ], [ 52.77711, 41.339545 ], [ 52.760997, 41.37759 ], [ 52.745291, 41.386176 ], [ 52.731944, 41.388251 ], [ 52.723399, 41.394232 ], [ 52.719086, 41.403957 ], [ 52.717784, 41.417182 ], [ 52.715831, 41.426418 ], [ 52.710297, 41.432278 ], [ 52.693614, 41.444525 ], [ 52.682384, 41.450344 ], [ 52.655935, 41.453355 ], [ 52.646251, 41.458197 ], [ 52.611664, 41.492377 ], [ 52.593923, 41.502631 ], [ 52.575369, 41.508734 ], [ 52.562185, 41.519477 ], [ 52.560232, 41.54385 ], [ 52.563487, 41.54621 ], [ 52.584158, 41.574612 ], [ 52.587738, 41.582709 ], [ 52.588634, 41.594184 ], [ 52.587576, 41.616156 ], [ 52.589122, 41.623196 ], [ 52.595225, 41.633734 ], [ 52.595551, 41.640041 ], [ 52.59254, 41.645738 ], [ 52.587738, 41.649563 ], [ 52.583018, 41.652004 ], [ 52.58074, 41.653713 ], [ 52.57252, 41.673774 ], [ 52.567149, 41.681708 ], [ 52.560232, 41.687812 ], [ 52.552908, 41.689643 ], [ 52.536632, 41.687934 ], [ 52.529552, 41.69123 ], [ 52.519867, 41.702094 ], [ 52.514496, 41.706936 ], [ 52.49879, 41.712104 ], [ 52.483572, 41.726264 ], [ 52.47462, 41.729438 ], [ 52.450206, 41.734809 ], [ 52.437671, 41.748876 ], [ 52.435802, 41.768541 ], [ 52.443614, 41.79092 ], [ 52.481944, 41.863959 ], [ 52.490977, 41.902045 ], [ 52.484548, 41.941636 ], [ 52.474132, 41.962592 ], [ 52.461192, 41.978949 ], [ 52.451671, 41.986314 ], [ 52.441661, 41.992377 ], [ 52.433767, 42.000434 ], [ 52.430512, 42.013739 ], [ 52.437266, 42.047838 ], [ 52.436778, 42.057807 ], [ 52.430837, 42.067125 ], [ 52.402029, 42.092515 ], [ 52.413097, 42.106676 ], [ 52.422211, 42.125312 ], [ 52.428396, 42.145453 ], [ 52.430512, 42.163886 ], [ 52.43629, 42.179877 ], [ 52.450531, 42.187812 ], [ 52.468272, 42.193101 ], [ 52.484548, 42.201728 ], [ 52.533539, 42.271918 ], [ 52.587576, 42.32685 ], [ 52.594086, 42.335273 ], [ 52.599132, 42.344713 ], [ 52.601248, 42.35635 ], [ 52.600108, 42.377672 ], [ 52.601085, 42.388617 ], [ 52.604828, 42.396674 ], [ 52.634451, 42.418647 ], [ 52.642833, 42.42829 ], [ 52.646007, 42.43651 ], [ 52.647472, 42.453599 ], [ 52.649669, 42.461859 ], [ 52.66627, 42.501776 ], [ 52.67628, 42.538479 ], [ 52.676524, 42.57453 ], [ 52.663341, 42.612698 ], [ 52.63795, 42.655504 ], [ 52.6185, 42.678412 ], [ 52.575694, 42.698635 ], [ 52.56422, 42.720893 ], [ 52.563813, 42.742255 ], [ 52.574474, 42.749823 ], [ 52.581554, 42.739244 ], [ 52.589122, 42.718248 ], [ 52.600434, 42.697659 ], [ 52.618907, 42.688422 ], [ 52.628103, 42.685858 ], [ 52.663341, 42.667914 ], [ 52.668305, 42.660631 ], [ 52.669932, 42.652981 ], [ 52.671723, 42.64765 ], [ 52.676931, 42.647406 ], [ 52.690929, 42.610989 ], [ 52.700938, 42.593207 ], [ 52.71046, 42.585395 ], [ 52.721446, 42.593492 ], [ 52.732595, 42.613837 ], [ 52.741222, 42.637885 ], [ 52.74464, 42.657375 ], [ 52.736339, 42.701361 ], [ 52.712901, 42.73078 ], [ 52.676524, 42.746649 ], [ 52.629161, 42.749823 ], [ 52.625011, 42.774726 ], [ 52.574229, 42.798529 ], [ 52.470876, 42.826239 ], [ 52.371837, 42.832424 ], [ 52.357432, 42.831732 ], [ 52.345063, 42.829413 ], [ 52.333181, 42.825181 ], [ 52.320649, 42.818752 ], [ 52.315115, 42.812974 ], [ 52.30421, 42.79564 ], [ 52.299571, 42.790839 ], [ 52.27296, 42.798774 ], [ 52.206309, 42.866116 ], [ 52.1692, 42.88703 ], [ 52.145518, 42.888495 ], [ 52.05836, 42.878485 ], [ 51.99171, 42.859687 ], [ 51.955089, 42.840644 ], [ 51.932791, 42.834947 ], [ 51.912446, 42.842353 ], [ 51.853852, 42.893785 ], [ 51.839854, 42.909369 ], [ 51.817882, 42.941148 ], [ 51.802582, 42.958686 ], [ 51.792735, 42.974189 ], [ 51.7824, 43.011379 ], [ 51.771983, 43.030992 ], [ 51.724457, 43.070502 ], [ 51.711436, 43.090888 ], [ 51.698497, 43.094306 ], [ 51.684418, 43.096096 ], [ 51.675792, 43.099921 ], [ 51.670746, 43.112738 ], [ 51.673839, 43.121161 ], [ 51.679698, 43.129096 ], [ 51.683116, 43.140855 ], [ 51.679373, 43.159735 ], [ 51.667735, 43.179755 ], [ 51.651052, 43.191392 ], [ 51.612315, 43.177069 ], [ 51.563243, 43.179185 ], [ 51.539806, 43.174994 ], [ 51.531912, 43.169379 ], [ 51.525645, 43.162584 ], [ 51.518728, 43.156928 ], [ 51.508556, 43.154486 ], [ 51.49586, 43.156806 ], [ 51.47283, 43.166571 ], [ 51.460297, 43.16885 ], [ 51.367849, 43.154486 ], [ 51.275727, 43.154486 ], [ 51.262706, 43.164618 ], [ 51.266287, 43.187567 ], [ 51.302419, 43.268988 ], [ 51.312836, 43.311184 ], [ 51.319591, 43.442532 ], [ 51.314708, 43.46247 ], [ 51.283214, 43.508368 ], [ 51.278575, 43.517646 ], [ 51.276703, 43.527167 ], [ 51.275401, 43.549791 ], [ 51.27296, 43.55858 ], [ 51.25766, 43.572252 ], [ 51.21811, 43.593329 ], [ 51.210216, 43.610093 ], [ 51.206879, 43.624457 ], [ 51.198497, 43.626166 ], [ 51.187348, 43.622504 ], [ 51.176117, 43.620673 ], [ 51.163422, 43.622707 ], [ 51.156016, 43.624823 ], [ 51.141856, 43.633734 ], [ 51.115001, 43.660834 ], [ 51.023123, 43.800971 ], [ 51.014903, 43.818549 ], [ 51.011567, 43.836005 ], [ 51.008637, 43.845608 ], [ 51.001964, 43.854193 ], [ 50.994965, 43.861477 ], [ 50.991059, 43.867092 ], [ 50.990408, 43.876939 ], [ 50.992849, 43.898586 ], [ 50.991059, 43.908108 ], [ 50.983246, 43.919013 ], [ 50.953298, 43.938788 ], [ 50.946788, 43.947211 ], [ 50.938731, 43.965725 ], [ 50.923595, 43.983059 ], [ 50.911306, 44.002387 ], [ 50.901703, 44.011054 ], [ 50.891368, 44.015448 ], [ 50.868826, 44.020331 ], [ 50.86085, 44.025377 ], [ 50.852794, 44.038764 ], [ 50.853689, 44.047553 ], [ 50.858165, 44.05622 ], [ 50.86085, 44.069403 ], [ 50.857188, 44.152777 ], [ 50.852794, 44.173407 ], [ 50.847179, 44.189276 ], [ 50.821625, 44.215033 ], [ 50.781261, 44.235907 ], [ 50.6963, 44.26435 ], [ 50.344574, 44.311265 ], [ 50.299083, 44.326361 ], [ 50.27768, 44.336493 ], [ 50.255219, 44.35102 ], [ 50.237478, 44.36933 ], [ 50.230154, 44.390937 ], [ 50.236827, 44.435981 ], [ 50.237559, 44.45775 ], [ 50.230154, 44.47663 ], [ 50.237559, 44.484076 ], [ 50.22755, 44.502183 ], [ 50.222179, 44.534817 ], [ 50.22462, 44.567694 ], [ 50.237559, 44.586493 ], [ 50.25408, 44.557522 ], [ 50.268321, 44.570543 ], [ 50.278494, 44.598375 ], [ 50.281749, 44.613756 ], [ 50.292735, 44.618964 ], [ 50.295258, 44.631171 ], [ 50.295421, 44.644965 ], [ 50.299083, 44.655341 ], [ 50.311209, 44.66234 ], [ 50.32016, 44.659898 ], [ 50.328868, 44.653266 ], [ 50.340017, 44.647895 ], [ 50.497813, 44.6258 ], [ 50.545421, 44.627427 ], [ 50.592296, 44.639716 ], [ 50.616954, 44.639716 ], [ 50.627452, 44.62401 ], [ 50.642751, 44.620795 ], [ 50.730479, 44.620551 ], [ 50.745616, 44.609198 ], [ 50.756847, 44.605048 ], [ 50.768321, 44.610338 ], [ 50.775401, 44.620551 ], [ 50.779063, 44.628079 ], [ 50.78419, 44.632717 ], [ 50.795909, 44.634263 ], [ 50.847911, 44.632799 ], [ 50.872895, 44.628852 ], [ 50.894867, 44.620551 ], [ 50.930349, 44.59691 ], [ 50.96046, 44.569729 ], [ 50.970063, 44.565375 ], [ 50.994477, 44.568264 ], [ 51.004731, 44.565985 ], [ 51.011241, 44.55801 ], [ 51.008637, 44.551459 ], [ 51.000743, 44.547024 ], [ 50.991059, 44.545478 ], [ 51.007335, 44.528795 ], [ 51.033458, 44.515815 ], [ 51.114594, 44.488471 ], [ 51.143321, 44.484768 ], [ 51.172618, 44.485582 ], [ 51.20281, 44.490912 ], [ 51.225271, 44.499742 ], [ 51.278575, 44.538642 ], [ 51.281016, 44.541205 ], [ 51.282725, 44.544745 ], [ 51.285655, 44.54857 ], [ 51.292247, 44.552314 ], [ 51.299164, 44.553656 ], [ 51.323497, 44.552314 ], [ 51.338634, 44.554023 ], [ 51.366222, 44.560207 ], [ 51.381521, 44.55976 ], [ 51.37379, 44.527737 ], [ 51.402517, 44.52143 ], [ 51.470958, 44.531887 ], [ 51.537934, 44.509345 ], [ 51.560313, 44.511379 ], [ 51.573904, 44.523912 ], [ 51.568696, 44.537746 ], [ 51.554373, 44.550482 ], [ 51.539806, 44.55976 ], [ 51.479503, 44.583157 ], [ 51.438975, 44.610053 ], [ 51.415538, 44.612128 ], [ 51.367849, 44.600775 ], [ 51.319347, 44.596381 ], [ 51.29184, 44.614488 ], [ 51.257986, 44.68891 ], [ 51.234386, 44.719062 ], [ 51.200938, 44.740912 ], [ 51.12086, 44.778266 ], [ 51.110606, 44.785468 ], [ 51.10377, 44.79206 ], [ 51.096039, 44.796861 ], [ 51.060232, 44.800238 ], [ 51.049571, 44.803453 ], [ 51.045177, 44.809638 ], [ 51.03419, 44.817857 ], [ 50.970714, 44.847154 ], [ 50.962413, 44.863674 ], [ 50.959972, 44.886461 ], [ 50.965505, 44.906684 ], [ 50.980805, 44.915432 ], [ 50.989757, 44.918931 ], [ 50.993826, 44.927151 ], [ 50.993988, 44.936469 ], [ 50.991059, 44.943345 ], [ 50.979666, 44.948717 ], [ 50.965994, 44.949449 ], [ 50.954356, 44.952216 ], [ 50.949555, 44.963813 ], [ 50.959321, 44.978827 ], [ 50.982188, 44.989488 ], [ 51.008556, 44.995836 ], [ 51.028331, 44.997992 ], [ 51.053559, 44.995429 ], [ 51.065196, 44.997016 ], [ 51.079356, 45.004828 ], [ 51.086274, 45.011461 ], [ 51.09783, 45.025295 ], [ 51.107188, 45.032172 ], [ 51.150238, 45.053616 ], [ 51.174571, 45.062201 ], [ 51.196544, 45.065619 ], [ 51.213552, 45.057563 ], [ 51.231619, 45.040676 ], [ 51.25115, 45.026068 ], [ 51.27296, 45.024644 ], [ 51.281749, 45.037543 ], [ 51.274913, 45.05683 ], [ 51.260753, 45.076606 ], [ 51.247813, 45.090481 ], [ 51.243419, 45.10106 ], [ 51.247732, 45.112982 ], [ 51.254405, 45.124661 ], [ 51.257986, 45.134508 ], [ 51.256521, 45.141303 ], [ 51.248302, 45.156684 ], [ 51.244395, 45.161811 ], [ 51.251231, 45.175482 ], [ 51.263194, 45.192572 ], [ 51.29363, 45.225491 ], [ 51.299571, 45.240953 ], [ 51.309255, 45.25731 ], [ 51.397227, 45.332587 ], [ 51.406098, 45.348578 ], [ 51.409516, 45.371039 ], [ 51.415701, 45.38996 ], [ 51.429942, 45.380927 ], [ 51.456716, 45.347398 ], [ 51.493907, 45.334703 ], [ 51.543712, 45.334906 ], [ 51.592947, 45.344713 ], [ 51.62794, 45.36107 ], [ 51.658702, 45.385321 ], [ 51.667735, 45.389553 ], [ 51.690196, 45.388617 ], [ 51.699962, 45.392076 ], [ 51.714854, 45.409654 ], [ 51.72641, 45.429389 ], [ 51.739513, 45.446845 ], [ 51.758311, 45.457261 ], [ 51.770356, 45.44774 ], [ 51.781423, 45.434231 ], [ 51.789317, 45.419338 ], [ 51.792491, 45.405463 ], [ 51.878429, 45.395209 ], [ 51.894298, 45.390855 ], [ 51.921153, 45.371649 ], [ 51.940115, 45.367336 ], [ 51.957774, 45.371649 ], [ 51.990082, 45.390855 ], [ 52.0088, 45.395209 ], [ 52.031423, 45.393012 ], [ 52.072032, 45.383612 ], [ 52.094086, 45.381537 ], [ 52.403087, 45.40941 ], [ 52.445811, 45.40058 ], [ 52.519298, 45.408881 ], [ 52.566661, 45.400702 ], [ 52.735199, 45.347846 ], [ 52.835134, 45.336656 ], [ 52.88502, 45.318305 ], [ 52.909679, 45.31269 ], [ 53.002208, 45.320136 ], [ 53.028494, 45.316474 ], [ 53.083344, 45.301663 ], [ 53.108246, 45.299628 ], [ 53.129242, 45.304877 ], [ 53.170909, 45.322496 ], [ 53.194347, 45.326361 ], [ 53.20045, 45.328437 ], [ 53.212413, 45.338039 ], [ 53.21811, 45.340562 ], [ 53.242849, 45.335395 ], [ 53.245453, 45.333808 ], [ 53.252208, 45.336982 ], [ 53.261241, 45.342841 ], [ 53.267345, 45.350898 ], [ 53.26588, 45.36107 ], [ 53.247569, 45.369696 ], [ 53.142914, 45.383979 ], [ 53.134532, 45.389594 ], [ 53.128673, 45.396389 ], [ 53.121918, 45.402045 ], [ 53.112071, 45.406155 ], [ 53.081716, 45.408881 ], [ 53.035655, 45.418769 ], [ 52.909679, 45.463446 ], [ 52.885102, 45.467475 ], [ 52.875743, 45.471137 ], [ 52.85727, 45.488715 ], [ 52.850108, 45.494208 ], [ 52.840668, 45.49726 ], [ 52.80421, 45.501044 ], [ 52.755219, 45.516791 ], [ 52.738455, 45.52558 ], [ 52.743419, 45.538316 ], [ 52.738048, 45.546942 ], [ 52.731944, 45.554145 ], [ 52.73463, 45.562812 ], [ 52.742686, 45.573432 ], [ 52.743012, 45.580797 ], [ 52.740245, 45.587836 ], [ 52.738455, 45.597235 ], [ 52.740001, 45.620836 ], [ 52.745616, 45.639146 ], [ 52.757091, 45.651068 ], [ 52.77589, 45.65526 ], [ 52.792247, 45.662909 ], [ 52.803884, 45.680732 ], [ 52.820323, 45.717353 ], [ 52.858735, 45.764838 ], [ 52.875499, 45.778795 ], [ 52.886241, 45.783677 ], [ 52.910899, 45.790513 ], [ 52.919932, 45.796129 ], [ 52.954356, 45.830308 ], [ 52.967459, 45.847805 ], [ 52.986583, 45.886135 ], [ 53.002208, 45.906073 ], [ 53.031261, 45.927395 ], [ 53.04005, 45.936469 ], [ 53.04477, 45.945054 ], [ 53.053966, 45.967231 ], [ 53.060395, 45.978013 ], [ 53.081798, 46.005113 ], [ 53.086599, 46.020494 ], [ 53.081716, 46.038804 ], [ 53.081716, 46.03266 ], [ 53.076996, 46.047838 ], [ 53.082367, 46.060736 ], [ 53.105235, 46.083889 ], [ 53.11378, 46.097846 ], [ 53.118419, 46.114325 ], [ 53.127615, 46.183295 ], [ 53.156749, 46.272284 ], [ 53.156749, 46.341702 ], [ 53.128266, 46.393948 ], [ 53.082856, 46.434963 ], [ 53.032563, 46.470893 ], [ 53.053233, 46.468695 ], [ 53.083181, 46.450141 ], [ 53.102061, 46.443549 ], [ 53.102061, 46.450995 ], [ 53.084158, 46.46015 ], [ 53.07545, 46.475653 ], [ 53.075043, 46.494208 ], [ 53.081716, 46.512437 ], [ 53.063243, 46.505845 ], [ 53.040782, 46.49018 ], [ 53.017833, 46.478664 ], [ 52.998383, 46.484565 ], [ 52.996593, 46.504788 ], [ 53.009613, 46.531684 ], [ 53.04005, 46.57392 ], [ 53.041759, 46.555365 ], [ 53.05421, 46.5456 ], [ 53.071788, 46.544745 ], [ 53.087901, 46.553412 ], [ 53.095714, 46.568345 ], [ 53.100108, 46.605129 ], [ 53.108246, 46.621731 ], [ 53.117686, 46.601508 ], [ 53.125743, 46.606635 ], [ 53.133637, 46.622707 ], [ 53.142426, 46.635321 ], [ 53.152029, 46.637681 ], [ 53.174978, 46.634955 ], [ 53.184093, 46.635321 ], [ 53.195811, 46.639838 ], [ 53.200531, 46.643297 ], [ 53.2046, 46.655829 ], [ 53.207774, 46.695014 ], [ 53.188162, 46.718004 ], [ 53.156912, 46.728909 ], [ 53.125743, 46.731594 ], [ 53.105805, 46.73725 ], [ 53.099457, 46.751125 ], [ 53.102061, 46.783108 ], [ 53.083507, 46.853258 ], [ 53.064789, 46.879462 ], [ 53.060395, 46.89232 ], [ 53.051931, 46.898424 ], [ 53.009044, 46.894843 ], [ 52.992198, 46.895453 ], [ 52.974132, 46.908433 ], [ 52.935557, 46.94892 ], [ 52.919932, 46.957465 ], [ 52.875011, 46.956773 ], [ 52.782725, 46.943834 ], [ 52.727387, 46.950019 ], [ 52.614757, 46.950019 ], [ 52.590343, 46.954413 ], [ 52.571544, 46.962226 ], [ 52.536957, 46.988837 ], [ 52.519379, 46.994208 ], [ 52.455903, 47.001166 ], [ 52.436778, 46.999091 ], [ 52.427257, 46.99018 ], [ 52.42335, 46.979071 ], [ 52.423106, 46.953803 ], [ 52.419281, 46.943996 ], [ 52.374034, 46.903632 ], [ 52.357188, 46.893622 ], [ 52.262218, 46.870103 ], [ 52.235037, 46.868883 ], [ 52.201834, 46.885443 ], [ 52.188813, 46.883775 ], [ 52.180675, 46.875556 ], [ 52.182872, 46.861884 ], [ 52.189464, 46.85871 ], [ 52.215831, 46.85163 ], [ 52.224376, 46.848293 ], [ 52.230642, 46.841946 ], [ 52.237315, 46.832343 ], [ 52.242686, 46.821194 ], [ 52.244884, 46.810045 ], [ 52.238943, 46.80683 ], [ 52.112559, 46.81273 ], [ 52.087901, 46.82095 ], [ 52.078136, 46.825751 ], [ 52.071788, 46.830024 ], [ 52.06837, 46.837388 ], [ 52.067393, 46.851386 ], [ 52.06186, 46.850043 ], [ 52.049571, 46.856879 ], [ 52.017263, 46.880683 ], [ 52.007009, 46.885077 ], [ 52.000011, 46.89057 ], [ 51.997895, 46.902899 ], [ 52.003591, 46.909613 ], [ 52.014496, 46.917222 ], [ 52.022472, 46.926215 ], [ 52.018891, 46.936998 ], [ 51.999034, 46.940985 ], [ 51.981212, 46.923326 ], [ 51.960704, 46.88581 ], [ 51.941417, 46.87995 ], [ 51.909679, 46.88109 ], [ 51.87672, 46.886949 ], [ 51.853852, 46.895453 ], [ 51.885427, 46.924465 ], [ 51.895518, 46.930813 ], [ 51.874034, 46.935614 ], [ 51.84962, 46.928209 ], [ 51.806, 46.909084 ], [ 51.784923, 46.909125 ], [ 51.763682, 46.915717 ], [ 51.743907, 46.926825 ], [ 51.727712, 46.940416 ], [ 51.68922, 46.961493 ], [ 51.675792, 46.978583 ], [ 51.696056, 47.021186 ], [ 51.694021, 47.041734 ], [ 51.680186, 47.057034 ], [ 51.655284, 47.059882 ], [ 51.635753, 47.048774 ], [ 51.626801, 47.029283 ], [ 51.621104, 47.007392 ], [ 51.611013, 46.988837 ], [ 51.592296, 46.98725 ], [ 51.572032, 47.004828 ], [ 51.546072, 47.040025 ], [ 51.527192, 47.052965 ], [ 51.502615, 47.061347 ], [ 51.437836, 47.069159 ], [ 51.381847, 47.083686 ], [ 51.253591, 47.102973 ], [ 51.212576, 47.120917 ], [ 51.187022, 47.116889 ], [ 51.141856, 47.094672 ], [ 51.102712, 47.080471 ], [ 50.970714, 47.059882 ], [ 50.951915, 47.052191 ], [ 50.922862, 47.02497 ], [ 50.905447, 47.018948 ], [ 50.890798, 47.022284 ], [ 50.868337, 47.03677 ], [ 50.857432, 47.040025 ], [ 50.846528, 47.03677 ], [ 50.840587, 47.029486 ], [ 50.839529, 47.022284 ], [ 50.843761, 47.018948 ], [ 50.838145, 47.009914 ], [ 50.757823, 46.915513 ], [ 50.740571, 46.906155 ], [ 50.730479, 46.923326 ], [ 50.733897, 46.934963 ], [ 50.753184, 46.955064 ], [ 50.757823, 46.968004 ], [ 50.752126, 46.974677 ], [ 50.739513, 46.969224 ], [ 50.703787, 46.942694 ], [ 50.678233, 46.932685 ], [ 50.651378, 46.92829 ], [ 50.631114, 46.933905 ], [ 50.616059, 46.935614 ], [ 50.610362, 46.915269 ], [ 50.606944, 46.868109 ], [ 50.598643, 46.852444 ], [ 50.58546, 46.837226 ], [ 50.569102, 46.829047 ], [ 50.551606, 46.834621 ], [ 50.569835, 46.852362 ], [ 50.580821, 46.867621 ], [ 50.578136, 46.878363 ], [ 50.555431, 46.882392 ], [ 50.521332, 46.874661 ], [ 50.514415, 46.871812 ], [ 50.502778, 46.863593 ], [ 50.493663, 46.86579 ], [ 50.486176, 46.872016 ], [ 50.45338, 46.89175 ], [ 50.443044, 46.895453 ], [ 50.434744, 46.896877 ], [ 50.430186, 46.896715 ], [ 50.425141, 46.892727 ], [ 50.415782, 46.882392 ], [ 50.383637, 46.817776 ], [ 50.367361, 46.806627 ], [ 50.372081, 46.819322 ], [ 50.374278, 46.854438 ], [ 50.36085, 46.846503 ], [ 50.353038, 46.834866 ], [ 50.347341, 46.822821 ], [ 50.340017, 46.813463 ], [ 50.333018, 46.811021 ], [ 50.314138, 46.809312 ], [ 50.305919, 46.806627 ], [ 50.298676, 46.801947 ], [ 50.2942, 46.797919 ], [ 50.251475, 46.742418 ], [ 50.230968, 46.72602 ], [ 50.213145, 46.728176 ], [ 50.213145, 46.737738 ], [ 50.2199, 46.75019 ], [ 50.223155, 46.761054 ], [ 50.213145, 46.765692 ], [ 50.200369, 46.763088 ], [ 50.168793, 46.749091 ], [ 50.079356, 46.683783 ], [ 50.050792, 46.649604 ], [ 50.034028, 46.635159 ], [ 50.014171, 46.629136 ], [ 49.976573, 46.632229 ], [ 49.962657, 46.629136 ], [ 49.95281, 46.623684 ], [ 49.937185, 46.607896 ], [ 49.928559, 46.601264 ], [ 49.893321, 46.590766 ], [ 49.882335, 46.575873 ], [ 49.8685, 46.575588 ], [ 49.839692, 46.580756 ], [ 49.82545, 46.571479 ], [ 49.823253, 46.55329 ], [ 49.817393, 46.540432 ], [ 49.79184, 46.547268 ], [ 49.779552, 46.561835 ], [ 49.771332, 46.567084 ], [ 49.760916, 46.563381 ], [ 49.760916, 46.541734 ], [ 49.757498, 46.531684 ], [ 49.747325, 46.536322 ], [ 49.726817, 46.554592 ], [ 49.713634, 46.561428 ], [ 49.702647, 46.560248 ], [ 49.700857, 46.552476 ], [ 49.704356, 46.527167 ], [ 49.702647, 46.519273 ], [ 49.637706, 46.577338 ], [ 49.622569, 46.582831 ], [ 49.61964, 46.563788 ], [ 49.626801, 46.519273 ], [ 49.608084, 46.527004 ], [ 49.597667, 46.521145 ], [ 49.590017, 46.509223 ], [ 49.578949, 46.498847 ], [ 49.570649, 46.521918 ], [ 49.557872, 46.534369 ], [ 49.498057, 46.552802 ], [ 49.480805, 46.560614 ], [ 49.469737, 46.573554 ], [ 49.469086, 46.594387 ], [ 49.469249, 46.562649 ], [ 49.472341, 46.546617 ], [ 49.486176, 46.534654 ], [ 49.496593, 46.509019 ], [ 49.50408, 46.498847 ], [ 49.492849, 46.499579 ], [ 49.475597, 46.50495 ], [ 49.465668, 46.506293 ], [ 49.456798, 46.509589 ], [ 49.45753, 46.517279 ], [ 49.461681, 46.52619 ], [ 49.46225, 46.532945 ], [ 49.458263, 46.53677 ], [ 49.438487, 46.55036 ], [ 49.428966, 46.554877 ], [ 49.423676, 46.550523 ], [ 49.421641, 46.543524 ], [ 49.421397, 46.53974 ], [ 49.389496, 46.544013 ], [ 49.353852, 46.553534 ], [ 49.323009, 46.568061 ], [ 49.305349, 46.587592 ], [ 49.312999, 46.562079 ], [ 49.378591, 46.510199 ], [ 49.394216, 46.478339 ], [ 49.374522, 46.484076 ], [ 49.337576, 46.485256 ], [ 49.333263, 46.484565 ], [ 49.319184, 46.49726 ], [ 49.309581, 46.512274 ], [ 49.297862, 46.523749 ], [ 49.278087, 46.525458 ], [ 49.278087, 46.519273 ], [ 49.294688, 46.508002 ], [ 49.297618, 46.486884 ], [ 49.303559, 46.466457 ], [ 49.329438, 46.457221 ], [ 49.366873, 46.429877 ], [ 49.37086, 46.420885 ], [ 49.372732, 46.410386 ], [ 49.37143, 46.399359 ], [ 49.366873, 46.388983 ], [ 49.325694, 46.410346 ], [ 49.306326, 46.423896 ], [ 49.291759, 46.437405 ], [ 49.277843, 46.453803 ], [ 49.266287, 46.464057 ], [ 49.250336, 46.469387 ], [ 49.223399, 46.470893 ], [ 49.23463, 46.464748 ], [ 49.243175, 46.458564 ], [ 49.24879, 46.449205 ], [ 49.250743, 46.433661 ], [ 49.255382, 46.42414 ], [ 49.291759, 46.39643 ], [ 49.287852, 46.394721 ], [ 49.278087, 46.388983 ], [ 49.263845, 46.396145 ], [ 49.184906, 46.413804 ], [ 49.173595, 46.41352 ], [ 49.168224, 46.40941 ], [ 49.170421, 46.399115 ], [ 49.178396, 46.392808 ], [ 49.188975, 46.389716 ], [ 49.199229, 46.388983 ], [ 49.215831, 46.380316 ], [ 49.222179, 46.361274 ], [ 49.223888, 46.342271 ], [ 49.22641, 46.333686 ], [ 49.227061, 46.327948 ], [ 49.227131, 46.327879 ], [ 49.263845, 46.293362 ], [ 49.295909, 46.274726 ], [ 49.306, 46.263129 ], [ 49.298513, 46.251776 ], [ 49.281993, 46.249905 ], [ 49.265391, 46.257514 ], [ 49.249197, 46.26732 ], [ 49.233246, 46.272284 ], [ 49.197765, 46.277899 ], [ 49.159679, 46.291938 ], [ 49.1421, 46.309963 ], [ 49.168224, 46.327541 ], [ 49.150157, 46.335761 ], [ 49.138194, 46.329657 ], [ 49.119802, 46.305732 ], [ 49.088145, 46.294501 ], [ 49.076182, 46.2862 ], [ 49.079356, 46.272284 ], [ 49.0713, 46.268256 ], [ 49.066417, 46.263861 ], [ 49.05893, 46.251776 ], [ 49.088227, 46.251166 ], [ 49.104747, 46.240668 ], [ 49.11199, 46.221137 ], [ 49.119477, 46.158759 ], [ 49.114513, 46.151272 ], [ 49.093028, 46.162421 ], [ 49.083995, 46.17178 ], [ 49.069021, 46.191962 ], [ 49.05893, 46.19717 ], [ 49.042247, 46.196234 ], [ 49.033214, 46.18891 ], [ 49.027517, 46.180609 ], [ 49.020763, 46.176663 ], [ 48.993907, 46.171942 ], [ 48.955821, 46.149482 ], [ 48.934825, 46.141913 ], [ 48.934825, 46.135688 ], [ 48.952647, 46.112616 ], [ 48.955333, 46.107815 ], [ 48.949962, 46.098293 ], [ 48.940603, 46.08926 ], [ 48.931814, 46.085273 ], [ 48.927989, 46.09101 ], [ 48.924327, 46.111477 ], [ 48.914399, 46.131985 ], [ 48.899262, 46.148383 ], [ 48.880138, 46.156195 ], [ 48.881684, 46.14289 ], [ 48.887055, 46.12226 ], [ 48.886974, 46.107815 ], [ 48.874034, 46.117621 ], [ 48.853282, 46.141018 ], [ 48.839203, 46.149359 ], [ 48.831798, 46.141913 ], [ 48.850841, 46.125312 ], [ 48.868012, 46.099799 ], [ 48.874197, 46.078192 ], [ 48.85963, 46.073635 ], [ 48.842947, 46.087307 ], [ 48.832367, 46.107652 ], [ 48.818533, 46.124701 ], [ 48.791352, 46.128241 ], [ 48.819835, 46.103461 ], [ 48.827647, 46.087714 ], [ 48.825531, 46.066799 ], [ 48.817882, 46.05622 ], [ 48.808442, 46.056627 ], [ 48.800955, 46.064683 ], [ 48.797618, 46.077053 ], [ 48.781749, 46.096666 ], [ 48.747244, 46.118801 ], [ 48.714122, 46.129584 ], [ 48.701996, 46.11522 ], [ 48.695811, 46.11522 ], [ 48.685557, 46.122382 ], [ 48.678559, 46.120307 ], [ 48.667817, 46.107815 ], [ 48.665375, 46.102362 ], [ 48.666026, 46.095608 ], [ 48.664236, 46.089789 ], [ 48.654552, 46.087307 ], [ 48.626964, 46.087307 ], [ 48.641856, 46.080756 ], [ 48.673676, 46.072821 ], [ 48.688487, 46.066799 ], [ 48.719574, 46.031155 ], [ 48.726248, 46.025214 ], [ 48.729015, 46.019965 ], [ 48.721853, 46.00849 ], [ 48.709972, 45.996975 ], [ 48.698985, 45.991685 ], [ 48.686371, 45.989569 ], [ 48.671723, 45.984117 ], [ 48.647309, 45.970608 ], [ 48.649587, 45.963324 ], [ 48.651378, 45.960517 ], [ 48.654796, 45.956936 ], [ 48.677989, 45.969062 ], [ 48.699067, 45.972602 ], [ 48.740245, 45.970608 ], [ 48.752208, 45.965562 ], [ 48.754893, 45.954169 ], [ 48.751801, 45.941596 ], [ 48.741059, 45.923 ], [ 48.742442, 45.91413 ], [ 48.74879, 45.906928 ], [ 48.757172, 45.902289 ], [ 48.756602, 45.887926 ], [ 48.7824, 45.858385 ], [ 48.791352, 45.840888 ], [ 48.773774, 45.850572 ], [ 48.765473, 45.8522 ], [ 48.743663, 45.840888 ], [ 48.721446, 45.838324 ], [ 48.714692, 45.831692 ], [ 48.716319, 45.813544 ], [ 48.69516, 45.82803 ], [ 48.686697, 45.848578 ], [ 48.691417, 45.868801 ], [ 48.710134, 45.881822 ], [ 48.692638, 45.880764 ], [ 48.679454, 45.885321 ], [ 48.654796, 45.902289 ], [ 48.649425, 45.905097 ], [ 48.643321, 45.907538 ], [ 48.636729, 45.909125 ], [ 48.630382, 45.909735 ], [ 48.626638, 45.912421 ], [ 48.622325, 45.925035 ], [ 48.620128, 45.929633 ], [ 48.593761, 45.958197 ], [ 48.573416, 45.971137 ], [ 48.554942, 45.967475 ], [ 48.522227, 45.953599 ], [ 48.5171, 45.947333 ], [ 48.509532, 45.940619 ], [ 48.492686, 45.939887 ], [ 48.475108, 45.941107 ], [ 48.465587, 45.940172 ], [ 48.457205, 45.932318 ], [ 48.434744, 45.915513 ], [ 48.401134, 45.879218 ], [ 48.393565, 45.86815 ], [ 48.379405, 45.87641 ], [ 48.364919, 45.876207 ], [ 48.356944, 45.869371 ], [ 48.362804, 45.857611 ], [ 48.374278, 45.854641 ], [ 48.407237, 45.851874 ], [ 48.414073, 45.84394 ], [ 48.399425, 45.835395 ], [ 48.304861, 45.840888 ], [ 48.288748, 45.837348 ], [ 48.284679, 45.82807 ], [ 48.285411, 45.815009 ], [ 48.283702, 45.799872 ], [ 48.277192, 45.7862 ], [ 48.269786, 45.779486 ], [ 48.249685, 45.771959 ], [ 48.233653, 45.768134 ], [ 48.224294, 45.768378 ], [ 48.220876, 45.765204 ], [ 48.22283, 45.751532 ], [ 48.227875, 45.742255 ], [ 48.235688, 45.734442 ], [ 48.242035, 45.724758 ], [ 48.242849, 45.709906 ], [ 48.215994, 45.724758 ], [ 48.179861, 45.739691 ], [ 48.147797, 45.743354 ], [ 48.133556, 45.724189 ], [ 48.091645, 45.74901 ], [ 48.078868, 45.751532 ], [ 48.063813, 45.745998 ], [ 48.044688, 45.727973 ], [ 48.02589, 45.722602 ], [ 48.019216, 45.718451 ], [ 48.013031, 45.712836 ], [ 48.007498, 45.700507 ], [ 48.000255, 45.704983 ], [ 47.989513, 45.717353 ], [ 47.986501, 45.719672 ], [ 47.982188, 45.723944 ], [ 47.976329, 45.728461 ], [ 47.969005, 45.731635 ], [ 47.961436, 45.731635 ], [ 47.955821, 45.728949 ], [ 47.950694, 45.725735 ], [ 47.930431, 45.721747 ], [ 47.919688, 45.715074 ], [ 47.896983, 45.693793 ], [ 47.891856, 45.697252 ], [ 47.885753, 45.710191 ], [ 47.875824, 45.722602 ], [ 47.859141, 45.724189 ], [ 47.848888, 45.717231 ], [ 47.845063, 45.706773 ], [ 47.84547, 45.679836 ], [ 47.834727, 45.659857 ], [ 47.835297, 45.649604 ], [ 47.852306, 45.642279 ], [ 47.846446, 45.631537 ], [ 47.838552, 45.622016 ], [ 47.829112, 45.614081 ], [ 47.818207, 45.6081 ], [ 47.77711, 45.65233 ], [ 47.770356, 45.665839 ], [ 47.764903, 45.682196 ], [ 47.75172, 45.690863 ], [ 47.721365, 45.696845 ], [ 47.717052, 45.699449 ], [ 47.710134, 45.708075 ], [ 47.704926, 45.709906 ], [ 47.700206, 45.708564 ], [ 47.696462, 45.705878 ], [ 47.692556, 45.703599 ], [ 47.687266, 45.703762 ], [ 47.678233, 45.70539 ], [ 47.67156, 45.705756 ], [ 47.665212, 45.707506 ], [ 47.6574, 45.713609 ], [ 47.65268, 45.720404 ], [ 47.648448, 45.734117 ], [ 47.643728, 45.740912 ], [ 47.632823, 45.750678 ], [ 47.619477, 45.758938 ], [ 47.603363, 45.765082 ], [ 47.580414, 45.770901 ], [ 47.560069, 45.771552 ], [ 47.55128, 45.76203 ], [ 47.555349, 45.743598 ], [ 47.565196, 45.741197 ], [ 47.57838, 45.74494 ], [ 47.592296, 45.744615 ], [ 47.591075, 45.741034 ], [ 47.604747, 45.718817 ], [ 47.606619, 45.717353 ], [ 47.612559, 45.714179 ], [ 47.62086, 45.71308 ], [ 47.62615, 45.709052 ], [ 47.622895, 45.697211 ], [ 47.622732, 45.688218 ], [ 47.625743, 45.679023 ], [ 47.625824, 45.67182 ], [ 47.616059, 45.668931 ], [ 47.608084, 45.667467 ], [ 47.606293, 45.663967 ], [ 47.608735, 45.659491 ], [ 47.612641, 45.65526 ], [ 47.608735, 45.638821 ], [ 47.623709, 45.630683 ], [ 47.661143, 45.621772 ], [ 47.645518, 45.59219 ], [ 47.644298, 45.579088 ], [ 47.653656, 45.559068 ], [ 47.628103, 45.558987 ], [ 47.615001, 45.570217 ], [ 47.599132, 45.6081 ], [ 47.585948, 45.6258 ], [ 47.540701, 45.665839 ], [ 47.529063, 45.670478 ], [ 47.482432, 45.668931 ], [ 47.472992, 45.673774 ], [ 47.456228, 45.68773 ], [ 47.432628, 45.694485 ], [ 47.436046, 45.70303 ], [ 47.446462, 45.712063 ], [ 47.455089, 45.717353 ], [ 47.463227, 45.718085 ], [ 47.503429, 45.717353 ], [ 47.480805, 45.730536 ], [ 47.425304, 45.734809 ], [ 47.414073, 45.748114 ], [ 47.408702, 45.75141 ], [ 47.396739, 45.752875 ], [ 47.384776, 45.75019 ], [ 47.379405, 45.740912 ], [ 47.383149, 45.733954 ], [ 47.410655, 45.713609 ], [ 47.413097, 45.707994 ], [ 47.412446, 45.695624 ], [ 47.414073, 45.69066 ], [ 47.419932, 45.683173 ], [ 47.427745, 45.676418 ], [ 47.431895, 45.675279 ], [ 47.443533, 45.676744 ], [ 47.448253, 45.676418 ], [ 47.453624, 45.672105 ], [ 47.463227, 45.659125 ], [ 47.468761, 45.65526 ], [ 47.515147, 45.649482 ], [ 47.534841, 45.643866 ], [ 47.55128, 45.627997 ], [ 47.548188, 45.620795 ], [ 47.552745, 45.610338 ], [ 47.559744, 45.598456 ], [ 47.57016, 45.573717 ], [ 47.572113, 45.566962 ], [ 47.571788, 45.559068 ], [ 47.567719, 45.553616 ], [ 47.55421, 45.545559 ], [ 47.55128, 45.542304 ], [ 47.542328, 45.537055 ], [ 47.523774, 45.549384 ], [ 47.5088, 45.571112 ], [ 47.509613, 45.593899 ], [ 47.494314, 45.58515 ], [ 47.493175, 45.571967 ], [ 47.49643, 45.565253 ], [ 47.500173, 45.557685 ], [ 47.526134, 45.524848 ], [ 47.536469, 45.507717 ], [ 47.538259, 45.506496 ], [ 47.534434, 45.50609 ], [ 47.501475, 45.480455 ], [ 47.496755, 45.470893 ], [ 47.496267, 45.461575 ], [ 47.49879, 45.438137 ], [ 47.496755, 45.429999 ], [ 47.477387, 45.422431 ], [ 47.419119, 45.426663 ], [ 47.393565, 45.422553 ], [ 47.381358, 45.411038 ], [ 47.395356, 45.404934 ], [ 47.444835, 45.402045 ], [ 47.459158, 45.398749 ], [ 47.460134, 45.390815 ], [ 47.454275, 45.381781 ], [ 47.448253, 45.374742 ], [ 47.432465, 45.369696 ], [ 47.427745, 45.367336 ], [ 47.424978, 45.363918 ], [ 47.423188, 45.357856 ], [ 47.395193, 45.320014 ], [ 47.384044, 45.299465 ], [ 47.379405, 45.282213 ], [ 47.379405, 45.202826 ], [ 47.370128, 45.185614 ], [ 47.356456, 45.185248 ], [ 47.338145, 45.192206 ], [ 47.314464, 45.196601 ], [ 47.29713, 45.187445 ], [ 47.286469, 45.165961 ], [ 47.275645, 45.120836 ], [ 47.261241, 45.085028 ], [ 47.250499, 45.065253 ], [ 47.227875, 45.033393 ], [ 47.211681, 44.990302 ], [ 47.201182, 44.970038 ], [ 47.180675, 44.976711 ], [ 47.165782, 44.966986 ], [ 47.154959, 44.948635 ], [ 47.146007, 44.929104 ], [ 47.139659, 44.938218 ], [ 47.12672, 44.950263 ], [ 47.111501, 44.958482 ], [ 47.098806, 44.956366 ], [ 47.098155, 44.946519 ], [ 47.111664, 44.869574 ], [ 47.084483, 44.817532 ], [ 47.079112, 44.800116 ], [ 47.078298, 44.785102 ], [ 47.071462, 44.785102 ], [ 47.059093, 44.802924 ], [ 47.023611, 44.842963 ], [ 47.016287, 44.857978 ], [ 47.011485, 44.902289 ], [ 47.003184, 44.921576 ], [ 46.988943, 44.915432 ], [ 46.983897, 44.893378 ], [ 46.991954, 44.870063 ], [ 47.003917, 44.84809 ], [ 47.01002, 44.830064 ], [ 47.003184, 44.817613 ], [ 46.971446, 44.783759 ], [ 46.961599, 44.765204 ], [ 46.94337, 44.77497 ], [ 46.923839, 44.77204 ], [ 46.888194, 44.751899 ], [ 46.867931, 44.740465 ], [ 46.854503, 44.725409 ], [ 46.843516, 44.709662 ], [ 46.831309, 44.696357 ], [ 46.791677, 44.706041 ], [ 46.766368, 44.681464 ], [ 46.746267, 44.654039 ], [ 46.722016, 44.655341 ], [ 46.716319, 44.638861 ], [ 46.707774, 44.569729 ], [ 46.711599, 44.566392 ], [ 46.718923, 44.55801 ], [ 46.723155, 44.549465 ], [ 46.718272, 44.545478 ], [ 46.707205, 44.545111 ], [ 46.694672, 44.543036 ], [ 46.684581, 44.537909 ], [ 46.680431, 44.528469 ], [ 46.683604, 44.506781 ], [ 46.697765, 44.466457 ], [ 46.700938, 44.446194 ], [ 46.711274, 44.43183 ], [ 46.734386, 44.414781 ], [ 46.758962, 44.40058 ], [ 46.773204, 44.39468 ], [ 46.817638, 44.39468 ], [ 46.84018, 44.397773 ], [ 46.851899, 44.39761 ], [ 47.002615, 44.367336 ], [ 47.025645, 44.359605 ], [ 47.0442, 44.346259 ], [ 47.055431, 44.327704 ], [ 47.069184, 44.284329 ], [ 47.078298, 44.26435 ], [ 47.088715, 44.251532 ], [ 47.104991, 44.235907 ], [ 47.122244, 44.222724 ], [ 47.136078, 44.217108 ], [ 47.146332, 44.214301 ], [ 47.166759, 44.203315 ], [ 47.180024, 44.202867 ], [ 47.190929, 44.208564 ], [ 47.21046, 44.226752 ], [ 47.22169, 44.23078 ], [ 47.245942, 44.211982 ], [ 47.265391, 44.168647 ], [ 47.289887, 44.093004 ], [ 47.316091, 44.058051 ], [ 47.333995, 44.039537 ], [ 47.348643, 44.031562 ], [ 47.357921, 44.020575 ], [ 47.386892, 43.956488 ], [ 47.412283, 43.925971 ], [ 47.42335, 43.907945 ], [ 47.427745, 43.884182 ], [ 47.432628, 43.876166 ], [ 47.455251, 43.870917 ], [ 47.461925, 43.860297 ], [ 47.459483, 43.851793 ], [ 47.445486, 43.829739 ], [ 47.441417, 43.819281 ], [ 47.452159, 43.822984 ], [ 47.468272, 43.826117 ], [ 47.482758, 43.824897 ], [ 47.489268, 43.815579 ], [ 47.502778, 43.780992 ], [ 47.503429, 43.770901 ], [ 47.495453, 43.764838 ], [ 47.469412, 43.760077 ], [ 47.458507, 43.754462 ], [ 47.450206, 43.745917 ], [ 47.444591, 43.738471 ], [ 47.43393, 43.716254 ], [ 47.455089, 43.688951 ], [ 47.450938, 43.681871 ], [ 47.443126, 43.677395 ], [ 47.434581, 43.67357 ], [ 47.427745, 43.668443 ], [ 47.408051, 43.636868 ], [ 47.393565, 43.606391 ], [ 47.377126, 43.616523 ], [ 47.37322, 43.620673 ], [ 47.365733, 43.620673 ], [ 47.366547, 43.602851 ], [ 47.371755, 43.579739 ], [ 47.379893, 43.559719 ], [ 47.390147, 43.551174 ], [ 47.404959, 43.543769 ], [ 47.403819, 43.527574 ], [ 47.404307, 43.511379 ], [ 47.424327, 43.503974 ], [ 47.448497, 43.518134 ], [ 47.465343, 43.552151 ], [ 47.474457, 43.593451 ], [ 47.475841, 43.629543 ], [ 47.477794, 43.643744 ], [ 47.481781, 43.653144 ], [ 47.48878, 43.661322 ], [ 47.500011, 43.671576 ], [ 47.507335, 43.685736 ], [ 47.502696, 43.715033 ], [ 47.506602, 43.726752 ], [ 47.522634, 43.748847 ], [ 47.533865, 43.775946 ], [ 47.540863, 43.804755 ], [ 47.543793, 43.832343 ], [ 47.54184, 43.854722 ], [ 47.544444, 43.86522 ], [ 47.554698, 43.877631 ], [ 47.588227, 43.898139 ], [ 47.595714, 43.90119 ], [ 47.625662, 43.900336 ], [ 47.652843, 43.896674 ], [ 47.677989, 43.888617 ], [ 47.701508, 43.874498 ], [ 47.643809, 43.829901 ], [ 47.601573, 43.765692 ], [ 47.543793, 43.627509 ], [ 47.519705, 43.520006 ], [ 47.490896, 43.462836 ], [ 47.482188, 43.42178 ], [ 47.483246, 43.379706 ], [ 47.496755, 43.346381 ], [ 47.488617, 43.329535 ], [ 47.486827, 43.310858 ], [ 47.493419, 43.296332 ], [ 47.509613, 43.291693 ], [ 47.534353, 43.320624 ], [ 47.55421, 43.325507 ], [ 47.570323, 43.333726 ], [ 47.577403, 43.329657 ], [ 47.582367, 43.32099 ], [ 47.58546, 43.312201 ], [ 47.585704, 43.299547 ], [ 47.58074, 43.29267 ], [ 47.574718, 43.287787 ], [ 47.564952, 43.268052 ], [ 47.549001, 43.257636 ], [ 47.5171, 43.243313 ], [ 47.506033, 43.2355 ], [ 47.48585, 43.212836 ], [ 47.481212, 43.202338 ], [ 47.488292, 43.180487 ], [ 47.48585, 43.171942 ], [ 47.478038, 43.159898 ], [ 47.478852, 43.148668 ], [ 47.48227, 43.138007 ], [ 47.482432, 43.127265 ], [ 47.47641, 43.118069 ], [ 47.459483, 43.104438 ], [ 47.455089, 43.099921 ], [ 47.45281, 43.080797 ], [ 47.461925, 43.020819 ], [ 47.530121, 42.962104 ], [ 47.589854, 42.942694 ], [ 47.599132, 42.931708 ], [ 47.605642, 42.917426 ], [ 47.621593, 42.905097 ], [ 47.69809, 42.867133 ], [ 47.701671, 42.861762 ], [ 47.707774, 42.837836 ], [ 47.711681, 42.832424 ], [ 47.709972, 42.82217 ], [ 47.716645, 42.773586 ], [ 47.715099, 42.75727 ], [ 47.721365, 42.75727 ], [ 47.71697, 42.747219 ], [ 47.715099, 42.736233 ], [ 47.715587, 42.696682 ], [ 47.727306, 42.662787 ], [ 47.751801, 42.636664 ], [ 47.837657, 42.604926 ], [ 47.867686, 42.584662 ], [ 47.938487, 42.481106 ], [ 47.992931, 42.419664 ], [ 48.023692, 42.392971 ], [ 48.078787, 42.362738 ], [ 48.095958, 42.349799 ], [ 48.222341, 42.175116 ], [ 48.249685, 42.146552 ], [ 48.286143, 42.120836 ], [ 48.304047, 42.102729 ], [ 48.311697, 42.081977 ], [ 48.315603, 42.060289 ], [ 48.324962, 42.038764 ], [ 48.386729, 41.937201 ], [ 48.416352, 41.915025 ], [ 48.462413, 41.900784 ], [ 48.51002, 41.8935 ], [ 48.552908, 41.875556 ], [ 48.578624, 41.845526 ], [ 48.578949, 41.845282 ], [ 48.589366, 41.838365 ], [ 48.620128, 41.824408 ], [ 48.655447, 41.800605 ] ] ] } },
{ "type": "Feature", "properties": { "area_km2": 10876.01, "lon": 28.41, "lat": 9.77, "label": "Abyei", "kind": "disputed_unassigned" }, "geometry": { "type": "Polygon", "coordinates": [ [ [ 28.843841, 9.324545 ], [ 28.831489, 9.349248 ], [ 28.827372, 9.38493 ], [ 28.828745, 9.427474 ], [ 28.84933, 9.465901 ], [ 28.913833, 9.529031 ], [ 28.989476, 9.58709 ], [ 28.989476, 9.873572 ], [ 28.989476, 10.160053 ], [ 28.60142, 10.160053 ], [ 28.213364, 10.160053 ], [ 27.825309, 10.160053 ], [ 27.825309, 9.743747 ], [ 27.895072, 9.59541 ], [ 27.997076, 9.38493 ], [ 28.04511, 9.331407 ], [ 28.44383, 9.327981 ], [ 28.84255, 9.324556 ], [ 28.843841, 9.324545 ] ] ] } },
{ "type": "Feature", "properties": { "area_km2": 2088.06, "lon": 77.18, "lat": 35.39, "label": "Siachen Glacier", "kind": "disputed_unassigned" }, "geometry": { "type": "Polygon", "coordinates": [ [ [ 77.424659, 35.302924 ], [ 77.800346, 35.495406 ], [ 77.773578, 35.498971 ], [ 77.760349, 35.498093 ], [ 77.74743, 35.49432 ], [ 77.716734, 35.475407 ], [ 77.689655, 35.462694 ], [ 77.660613, 35.458095 ], [ 77.519608, 35.477439 ], [ 77.512199, 35.478456 ], [ 77.476438, 35.477164 ], [ 77.412773, 35.469412 ], [ 77.383731, 35.471996 ], [ 77.352002, 35.486052 ], [ 77.305389, 35.517833 ], [ 77.281102, 35.528013 ], [ 77.250819, 35.530701 ], [ 77.177542, 35.523156 ], [ 77.141265, 35.525378 ], [ 77.105298, 35.537987 ], [ 77.092276, 35.547805 ], [ 77.071089, 35.571008 ], [ 77.058169, 35.580103 ], [ 77.039049, 35.585013 ], [ 77.017552, 35.584599 ], [ 76.976417, 35.578656 ], [ 76.9358, 35.579638 ], [ 76.915026, 35.583152 ], [ 76.896422, 35.589612 ], [ 76.880506, 35.60067 ], [ 76.856941, 35.628576 ], [ 76.842989, 35.641288 ], [ 76.824592, 35.647799 ], [ 76.782837, 35.645732 ], [ 76.777351, 35.646112 ], [ 76.913161, 35.378277 ], [ 77.048971, 35.110442 ], [ 77.424659, 35.302924 ] ] ] } },
{ "type": "Feature", "properties": { "area_km2": 1408.88, "lon": -73.32, "lat": -49.51, "label": "Southern Patagonian Ice Field", "kind": "disputed_unassigned" }, "geometry": { "type": "Polygon", "coordinates": [ [ [ -73.457863, -49.307687 ], [ -73.471118, -49.317195 ], [ -73.470472, -49.342207 ], [ -73.462049, -49.37497 ], [ -73.466725, -49.387579 ], [ -73.483804, -49.400704 ], [ -73.522278, -49.416724 ], [ -73.540442, -49.427783 ], [ -73.551139, -49.444009 ], [ -73.550725, -49.463233 ], [ -73.544343, -49.477599 ], [ -73.542586, -49.491035 ], [ -73.555945, -49.508088 ], [ -73.586589, -49.529999 ], [ -73.588036, -49.540541 ], [ -73.575556, -49.559248 ], [ -73.562198, -49.571753 ], [ -73.532949, -49.593974 ], [ -73.521115, -49.60896 ], [ -73.518195, -49.628494 ], [ -73.528091, -49.644411 ], [ -73.540726, -49.6595 ], [ -73.546385, -49.67676 ], [ -73.539512, -49.692676 ], [ -73.524784, -49.706009 ], [ -73.496265, -49.725342 ], [ -73.492615, -49.727816 ], [ -73.465098, -49.759959 ], [ -73.19675, -49.682423 ], [ -73.133517, -49.621015 ], [ -73.059745, -49.554971 ], [ -73.057424, -49.47592 ], [ -73.084335, -49.422615 ], [ -73.118652, -49.392427 ], [ -73.108926, -49.310518 ], [ -73.098247, -49.272754 ], [ -73.130648, -49.278748 ], [ -73.141293, -49.285569 ], [ -73.145014, -49.303656 ], [ -73.457863, -49.307687 ] ] ] } },
{ "type": "Feature", "properties": { "area_km2": 267.55, "lon": -55.94, "lat": -31.0, "label": "Rincón de Artigas", "kind": "disputed_unassigned" }, "geometry": { "type": "Polygon", "coordinates": [ [ [ -55.985157, -31.078825 ], [ -55.919347, -31.082443 ], [ -55.888186, -31.076965 ], [ -55.86426, -31.076758 ], [ -55.854596, -31.074588 ], [ -55.846586, -31.069317 ], [ -55.842142, -31.063943 ], [ -55.838396, -31.058155 ], [ -55.832479, -31.051747 ], [ -55.816728, -31.042669 ], [ -55.826806, -31.036143 ], [ -55.825873, -31.019418 ], [ -55.872523, -30.977697 ], [ -55.887095, -30.976403 ], [ -55.915341, -30.950567 ], [ -55.934799, -30.944107 ], [ -55.943452, -30.928494 ], [ -55.956006, -30.927955 ], [ -55.963045, -30.897798 ], [ -55.977482, -30.885947 ], [ -55.980621, -30.876251 ], [ -55.989016, -30.856161 ], [ -55.993864, -30.885452 ], [ -56.011357, -30.912634 ], [ -56.015517, -30.934338 ], [ -56.016344, -30.999864 ], [ -56.02239, -31.045546 ], [ -56.022183, -31.067147 ], [ -56.017018, -31.074296 ], [ -56.011357, -31.082133 ], [ -56.009874, -31.081945 ], [ -55.985157, -31.078825 ] ] ] } },
{ "type": "Feature", "properties": { "area_km2": 3351.66, "lon": 35.12, "lat": 4.76, "label": "Ilemi Triangle", "kind": "disputed_unassigned" }, "geometry": { "type": "Polygon", "coordinates": [ [ [ 35.610641, 4.620014 ], [ 35.610201, 4.620812 ], [ 35.562607, 4.707137 ], [ 35.52218, 4.780461 ], [ 35.570836, 4.904313 ], [ 35.49564, 4.926429 ], [ 35.396117, 4.926429 ], [ 35.433715, 5.003836 ], [ 35.411598, 5.030376 ], [ 35.333563, 4.987281 ], [ 35.263419, 4.948545 ], [ 35.245726, 4.98172 ], [ 35.176189, 4.955564 ], [ 35.094298, 4.924761 ], [ 35.00272, 4.890314 ], [ 34.920829, 4.859511 ], [ 34.844751, 4.830895 ], [ 34.763589, 4.800366 ], [ 34.666277, 4.76498 ], [ 34.598159, 4.73092 ], [ 34.529156, 4.696419 ], [ 34.459674, 4.660609 ], [ 34.381188, 4.620158 ], [ 34.477409, 4.620107 ], [ 34.573631, 4.620055 ], [ 34.669852, 4.620003 ], [ 34.766074, 4.619952 ], [ 34.862399, 4.6199 ], [ 34.958517, 4.619848 ], [ 35.054842, 4.619797 ], [ 35.151063, 4.619745 ], [ 35.247285, 4.619693 ], [ 35.343403, 4.619642 ], [ 35.439624, 4.61959 ], [ 35.535846, 4.619538 ], [ 35.61214, 4.619497 ], [ 35.610641, 4.620014 ] ] ] } },
{ "type": "Feature", "properties": { "area_km2": 48.96, "lon": 35.75, "lat": 4.65, "label": "Ilemi Triangle", "kind": "disputed_unassigned" }, "geometry": { "type": "Polygon", "coordinates": [ [ [ 35.705846, 4.619447 ], [ 35.728496, 4.619435 ], [ 35.781222, 4.619922 ], [ 35.778439, 4.678338 ], [ 35.739402, 4.681127 ], [ 35.711518, 4.661608 ], [ 35.705939, 4.619962 ], [ 35.705846, 4.619447 ] ] ] } },
{ "type": "Feature", "properties": { "area_km2": 17.44, "lon": 35.67, "lat": 4.61, "label": "Ilemi Triangle", "kind": "disputed_unassigned" }, "geometry": { "type": "Polygon", "coordinates": [ [ [ 35.632274, 4.619487 ], [ 35.61214, 4.619497 ], [ 35.700365, 4.589111 ], [ 35.705812, 4.61926 ], [ 35.705846, 4.619447 ], [ 35.632274, 4.619487 ] ] ] } },
{ "type": "Feature", "properties": { "area_km2": 10.77, "lon": 35.42, "lat": 22.97, "label": "Bir Tawil / Halaib slivers", "kind": "sliver" }, "geometry": { "type": "Polygon", "coordinates": [ [ [ 35.429207, 22.97833 ], [ 35.212088, 22.786263 ], [ 35.345756, 22.901639 ], [ 35.486665, 23.023266 ], [ 35.621087, 23.139293 ], [ 35.429207, 22.97833 ] ] ] } },
{ "type": "Feature", "properties": { "area_km2": 8.36, "lon": 34.42, "lat": 22.25, "label": "Bir Tawil / Halaib slivers", "kind": "sliver" }, "geometry": { "type": "Polygon", "coordinates": [ [ [ 34.147476, 22.191856 ], [ 34.321075, 22.226294 ], [ 34.501684, 22.262124 ], [ 34.682088, 22.297912 ], [ 34.42276, 22.249207 ], [ 34.147476, 22.191856 ] ] ] } },
{ "type": "Feature", "properties": { "area_km2": 3.79, "lon": 33.66, "lat": 21.72, "label": "Bir Tawil / Halaib slivers", "kind": "sliver" }, "geometry": { "type": "Polygon", "coordinates": [ [ [ 33.866456, 21.749724 ], [ 33.717264, 21.730947 ], [ 33.558442, 21.710957 ], [ 33.560882, 21.709118 ], [ 33.866456, 21.749724 ] ] ] } },
{ "type": "Feature", "properties": { "area_km2": 0.56, "lon": 34.82, "lat": 22.6, "label": "Bir Tawil / Halaib slivers", "kind": "sliver" }, "geometry": { "type": "Polygon", "coordinates": [ [ [ 34.828226, 22.60689 ], [ 34.861952, 22.680182 ], [ 34.777558, 22.499765 ], [ 34.828226, 22.60689 ] ] ] } }
]
}
